,street_address,city,state,postal_code,restaurant
0,650 Ozark Rd,Abbeville,AL,36310,Hardee's
1,9940 HWY 119,ALABASTER,AL,35007,Hardee's
2,11024 Us Highway 431,Albertville,AL,35950,Hardee's
3,1249 Cherokee Rd,Alexander City,AL,35010,Hardee's
4,1202 E Bypass,Andalusia,AL,36420,Hardee's
5,1110 S Jefferson St,Athens,AL,35611,Hardee's
6,25 Lakeview Cir,Atmore,AL,36502,Hardee's
7,970 Gilbert Ferry Rd Se,Attalla,AL,35954,Hardee's
8,800 Wire Rd,Auburn,AL,36832,Hardee's
9,701 Dolive St,Bay Minette,AL,36507,Hardee's
10,9400 Parkway East,Birmingham,AL,35215,Hardee's
11,1771 Us Highway 431,Boaz,AL,35957,Hardee's
12,50770 Old Hwy 72,Bridgeport,AL,35740,Hardee's
13,499 W Troy St,Brundidge,AL,36010,Hardee's
14,109 E Pushmataha St,Butler,AL,36904,Hardee's
15,8441 HWY 31 S,CALERA,AL,35040,Hardee's
16,35 Highway 41 N,Camden,AL,36726,Hardee's
17,19765 N 3rd St,Citronelle,AL,36522,Hardee's
18,723 2Nd Ave Nw,Cullman,AL,35055,Hardee's
19,1535 County Rd 437,Cullman,AL,35055,Hardee's
20,1708 Beltline Rd,Decatur,AL,35601,Hardee's
21,3241 Point Mallard Pkwy Se,Decatur,AL,35603,Hardee's
22,810 6Th Ave Northeast,Decatur,AL,35601,Hardee's
23,1086 Ross Clark Cir,Dothan,AL,36303,Hardee's
24,2727 S Oates St,Dothan,AL,36301,Hardee's
25,4624 W. Main Street,Dothan,AL,36305,Hardee's
26,911 Fort Rucker Blvd,Enterprise,AL,36330,Hardee's
27,3194 S Eufaula Ave,Eufaula,AL,36027,Hardee's
28,7561 Mesopotamia St,Eutaw,AL,35462,Hardee's
29,845 Liberty Hill Dr,Evergreen,AL,36401,Hardee's
30,21514 Highway 31,Flomaton,AL,36441,Hardee's
31,1113 E 5Th Ave,Florala,AL,36442,Hardee's
32,2935 S Mckenzie St,Foley,AL,36535,Hardee's
33,1616 Decatur Hwy,Fultondale,AL,35068,Hardee's
34,1301 Maple Ave,Geneva,AL,36340,Hardee's
35,9400 Grand Bay Wilmer Rd,Grand Bay,AL,36541,Hardee's
36,3541 CATHEDRAL CAVERNS HWY,GRANT,AL,35747,Hardee's
37,912 Fortdale Rd,Greenville,AL,36037,Hardee's
38,837 Gulf Shores Pkwy,Gulf Shores,AL,36542,Hardee's
39,5975 HIGHWAY 72 E,GURLEY,AL,35748,Hardee's
40,261 Bexar Ave E,Hamilton,AL,35570,Hardee's
41,110 S State Highway 167,Hartford,AL,36344,Hardee's
42,680 Highway 31 Sw,Hartselle,AL,35640,Hardee's
43,16832 Us Hwy 431 South,Headland,AL,36345,Hardee's
44,228 OXMOOR BLVD,HOMEWOOD,AL,35209,Hardee's
45,2162 Valleydale Rd,Hoover,AL,35244,Hardee's
46,79 Folmar Pkwy,Hope Hull,AL,36043,Hardee's
47,917 ALLISON-BONNETT MEMORIAL DR,HUEYTOWN,AL,35023,Hardee's
48,2015 Drake Ave,Huntsville,AL,35801,Hardee's
49,300 Andrew Jackson Way,Huntsville,AL,35801,Hardee's
50,104 Green Cove Rd Se,Huntsville,AL,35803,Hardee's
51,3751 Al Highway 53,Huntsville,AL,35806,Hardee's
52,2800 College Ave,Jackson,AL,36545,Hardee's
53,303 Highway 78 W,Jasper,AL,35501,Hardee's
54,13151 N Hickory St,Loxley,AL,36551,Hardee's
55,742 S Forest Ave,Luverne,AL,36049,Hardee's
56,8827 Madison Blvd,Madison,AL,35758,Hardee's
57,5870 Wall Triana Hwy,Madison,AL,35758,Hardee's
58,11909 Highway 231 431 N,Meridianville,AL,35759,Hardee's
59,611 Bessemer Super Hwy,Midfield,AL,35228,Hardee's
60,3691 Highway 14,Millbrook,AL,36054,Hardee's
61,3715 Moffat Rd,Mobile,AL,36618,Hardee's
62,565 Government St,Mobile,AL,36602,Hardee's
63,930 Schillinger Rd S,Mobile,AL,36695,Hardee's
64,3225 St Stephens Rd,Mobile,AL,36612,Hardee's
65,1608 S Alabama Rd,Monroeville,AL,36460,Hardee's
66,5401 Atlanta Hwy,Montgomery,AL,36109,Hardee's
67,1183 W South Blvd,Montgomery,AL,36105,Hardee's
68,906 Ann St,Montgomery,AL,36107,Hardee's
69,2715 Taylor Rd,Montgomery,AL,36117,Hardee's
70,11838 Al  Hwy 157,Moulton,AL,35650,Hardee's
71,10139 Highway 431 S,New Hope,AL,35760,Hardee's
72,2530 Pepperell Pkwy,Opelika,AL,36801,Hardee's
73,1902 Marvyn Pkwy,Opelika,AL,36804,Hardee's
74,803 Florala Hwy,Opp,AL,36467,Hardee's
75,2515 Mountain Cove Dr,Owens Cross Roads,AL,35763,Hardee's
76,1333 Andrews Ave,Ozark,AL,36360,Hardee's
77,1300 280 Byp,Phenix City,AL,36867,Hardee's
78,706 East Main Street,Prattvile,AL,36067,Hardee's
79,2525 Cobbs Ford Rd,Prattville,AL,36066,Hardee's
80,104 Mccurdy Ave S,Rainsville,AL,35986,Hardee's
81,16191 Highway 72,Rogersville,AL,35652,Hardee's
82,1016 Highway 43,Saraland,AL,36571,Hardee's
83,23470 JOHN T REID PKWY,SCOTTSBORO,AL,35768,Hardee's
84,1201 Highland Ave,Selma,AL,36703,Hardee's
85,2176 Highway 78,Sumiton,AL,35148,Hardee's
86,42471 Us Hwy 280,Sylacauga,AL,35150,Hardee's
87,1300 Gilmer Ave,Tallassee,AL,36078,Hardee's
88,5796 Twin Oaks Court,Theodore,AL,36582,Hardee's
89,32450 Highway 43,Thomasville,AL,36784,Hardee's
90,1102 Highway 231 S,Troy,AL,36081,Hardee's
91,611 15TH ST E,Tuscaloosa,AL,35401,Hardee's
92,2515 Paul Bryant Dr,Tuscaloosa,AL,35401,Hardee's
93,929 Skyland Blvd E,Tuscaloosa,AL,35405,Hardee's
94,6718 HWY 69 S,TUSCALOOSA,AL,35405,Hardee's
95,419 Hwy 43 S,Tuscumbia,AL,35674,Hardee's
96,280 Warrior Jasper Rd,Warrior,AL,35180,Hardee's
97,5091 Us Highway 231,Wetumpka,AL,36092,Hardee's
98,850 S ST LOUIS STREET,BATESVILLE,AR,72501,Hardee's
99,21 US HWY 64,BEEBE,AR,72012,Hardee's
100,1221 W SOUTH STREET,BENTON,AR,72015,Hardee's
101,3783 E HIGHWAY 18,BLYTHEVILLE,AR,72315,Hardee's
102,2201 NORTH 2ND STREET,CABOT,AR,72023,Hardee's
103,2500 CLARK RD,CLARKSVILLE,AR,72830,Hardee's
104,1055 DAVE WARD DR,CONWAY,AR,72034,Hardee's
105,2720 ROGERS AVE,FORT SMITH,AR,72901,Hardee's
106,1820 PHOENIX AV,FORT SMITH,AR,72901,Hardee's
107,1331 RED WOLF BLVD,JONESBORO,AR,72401,Hardee's
108,11700 INTERSTATE 30,LITTLE ROCK,AR,72210,Hardee's
109,500 E North St,Mountain Home,AR,72653,Hardee's
110,604 NE MAIN,MOUNTAIN VIEW,AR,72560,Hardee's
111,1700 MALCOLM,NEWPORT,AR,72112,Hardee's
112,4901 John F Kennedy Blvd,North Little Rock,AR,72116,Hardee's
113,301 LINWOOD,PARAGOULD,AR,72450,Hardee's
114,950 EAST MAIN,PIGGOTT,AR,72454,Hardee's
115,116 Ron Harrod Rd,Prescott,AR,71857,Hardee's
116,3095 E MAIN ST,RUSSELLVILLE,AR,72802,Hardee's
117,2997 E Race Ave,Searcy,AR,72143,Hardee's
118,2505 Queensway St,Searcy,AR,72143,Hardee's
119,201 N ROCK ST,SHERIDAN,AR,72150,Hardee's
120,1801 Pulaski Hwy,Bear,DE,19701,Hardee's
121,519 S Bay Rd,Dover,DE,19901,Hardee's
122,50 Greentree Dr,Dover,DE,19904,Hardee's
123,20598 Dupont Blvd,Georgetown,DE,19947,Hardee's
124,7237 Milford Harrington Hwy,Harrington,DE,19952,Hardee's
125,30759 Sussex Hwy,Laurel,DE,19956,Hardee's
126,340 Dove Run Dr,Middletown,DE,19709,Hardee's
127,698 N Dupont Blvd,Milford,DE,19963,Hardee's
128,28552 Dupont Blvd,Millsboro,DE,19966,Hardee's
129,328 W Stein Hwy,Seaford,DE,19973,Hardee's
130,100 Jimmy Dr,Smyrna,DE,19977,Hardee's
131,451 Altamonte Dr.,Altamonte Springs,FL,32701,Hardee's
132,126 Magnolia Ave,Auburndale,FL,33823,Hardee's
133,300 E Van Fleet Drive,Bartow,FL,33830,Hardee's
134,5741 Se Abshier Blvd,Belleview,FL,34420,Hardee's
135,2111 S Waukesha St,Bonifay,FL,32425,Hardee's
136,404 HWY 27,BRANFORD,FL,32008,Hardee's
137,399 N. Hathaway Ave.,Bronson,FL,32621,Hardee's
138,1685 W Jefferson St,Brooksville,FL,34601,Hardee's
139,542309 Us Hwy 1,Callahan,FL,32011,Hardee's
140,651 West Washington St,Chattahoochee,FL,32324,Hardee's
141,1024 N Young Blvd,Chiefland,FL,32626,Hardee's
142,1212 Main St,Chipley,FL,32428,Hardee's
143,2994 Crawfordville Hwy,Crawfordville,FL,32327,Hardee's
144,15909 Se 19 Hwy,Cross City,FL,32628,Hardee's
145,16 Ne Highway 19,Crystal River,FL,34429,Hardee's
146,39837 Us Hwy 27,Davenport,FL,33837,Hardee's
147,1098 W International Speedway Blvd,Deland,FL,32720,Hardee's
148,400 Welcome Center Drive,Deltona,FL,32725,Hardee's
149,28199 Hwy 27,Dundee,FL,33838,Hardee's
150,11582 Williams St,Dunnellon,FL,34432,Hardee's
151,241 US Hwy 17 S,East Palatka,FL,32131,Hardee's
152,13700 Us Hwy 441,Ellisville,FL,32025,Hardee's
153,4900 Palm Beach Blvd,Fort Myers,FL,33905,Hardee's
154,200 S Kings Hwy,Fort Pierce,FL,34945,Hardee's
155,822 Beal Pkwy Nw,Fort Walton Beach,FL,32547,Hardee's
156,5425 Cotton St,Graceville,FL,32440,Hardee's
157,1323 N Orange Ave,Green Cove Springs,FL,32043,Hardee's
158,266 W Broad St,Groveland,FL,34736,Hardee's
159,19143 Nw Us Hwy 441,High Springs,FL,32643,Hardee's
160,3960 S Suncoast Blvd,Homosassa,FL,34448,Hardee's
161,873 Lane Ave S,Jacksonville,FL,32205,Hardee's
162,9210 Baymeadows Rd,Jacksonville,FL,32256,Hardee's
163,498 Busch Dr,Jacksonville,FL,32218,Hardee's
164,6852 Wilson Ave,Jacksonville,FL,32210,Hardee's
165,6914 Norwood Avenue,Jacksonville,FL,32208,Hardee's
166,8040 Normandy Blvd,Jacksonville,FL,32221,Hardee's
167,9111 Merrill Road,Jacksonville,FL,32225,Hardee's
168,12771 Atlantic Blvd,Jacksonville,FL,32225,Hardee's
169,6680 Commonwealth Ave,Jacksonville,FL,32254,Hardee's
170,11191 San Jose Blvd,Jacksonville,FL,32223,Hardee's
171,675 Nautica Dr,Jacksonville,FL,32218,Hardee's
172,1616 US Highway 41 NW,Jasper,FL,32052,Hardee's
173,7401 State Rd 21,Keystone Heights,FL,32656,Hardee's
174,504 W. Vine St.,Kissimmee,FL,34741,Hardee's
175,342 Shinn Blvd,Lake Alfred,FL,33850,Hardee's
176,1205 E Main Street,Lake Butler,FL,32054,Hardee's
177,279 W Duval St,Lake City,FL,32055,Hardee's
178,2609 W Us Highway 90,Lake City,FL,32055,Hardee's
179,2399 SE Baya Dr,Lake City,FL,32025,Hardee's
180,2050 W Memorial Blvd,Lakeland,FL,33815,Hardee's
181,43 E C 470,Lake Panasoffkee,FL,33538,Hardee's
182,24 Pafford RD,Lamont,FL,32336,Hardee's
183,802 S 14Th St,Leesburg,FL,34748,Hardee's
184,608 Ohio Ave S,Live Oak,FL,32064,Hardee's
185,1490 S 6Th St,Macclenny,FL,32063,Hardee's
186,4652 E Highway 90,Marianna,FL,32446,Hardee's
187,3992 S Babcock St,Melbourne,FL,32901,Hardee's
188,2730 Blanding Blvd,Middleburg,FL,32068,Hardee's
189,6527 Hwy 90,Milton,FL,32570,Hardee's
190,4440 Hwy. 46,Mims,FL,32754,Hardee's
191,810 N US Hwy 27,Minneola,FL,34715,Hardee's
192,515 E Canal St,Mulberry,FL,33860,Hardee's
193,24915 W Newberry Rd,Newberry,FL,32669,Hardee's
194,6155 SR 200,Ocala,FL,34476,Hardee's
195,908 Nw Pine Ave,Ocala,FL,34475,Hardee's
196,25807 SE US HWY. 19,Old Town,FL,32680,Hardee's
197,5212 Silver Star Rd,Orlando,FL,32808,Hardee's
198,4200 Hwy 90,Pace,FL,32571,Hardee's
199,3439 Highway 77,Panama City,FL,32405,Hardee's
200,11769 Panama City Beach Pkwy,Panama City Beach,FL,32407,Hardee's
201,8001 Pensacola Blvd,Pensacola,FL,32534,Hardee's
202,2500 Wilde Lake Blvd,Pensacola,FL,32526,Hardee's
203,805 N Navy Blvd,Pensacola,FL,32507,Hardee's
204,12275 Lillian Hwy,Pensacola,FL,32506,Hardee's
205,7137 N 9Th Ave,Pensacola,FL,32504,Hardee's
206,2046 S Byron Butler Pkwy,Perry,FL,32348,Hardee's
207,1713 James Redman Pkwy,Plant City,FL,33563,Hardee's
208,8407 Us Highway 19,Port Richey,FL,34668,Hardee's
209,100 W Jefferson St,Quincy,FL,32351,Hardee's
210,402 S Tamiami Trail,Ruskin,FL,33570,Hardee's
211,3795 34Th St N,Saint Petersburg,FL,33713,Hardee's
212,5690 W State Road 46,Sanford,FL,32771,Hardee's
213,3000 Us Highway 98 W,Santa Rosa,FL,32459,Hardee's
214,11705 E Us Highway 92,Seffner,FL,33584,Hardee's
215,435 S Temple Ave,Starke,FL,32091,Hardee's
216,5818 N Monroe St,Tallahassee,FL,32303,Hardee's
217,1829 Capital Circle Ne,Tallahassee,FL,32308,Hardee's
218,301 E Burleigh Blvd,Tavares,FL,32778,Hardee's
219,6292 Commercial Way,WEEKI WACHEE,FL,34613,Hardee's
220,404 S Main St,Wildwood,FL,34785,Hardee's
221,549 State Highway 44,Wildwood,FL,34785,Hardee's
222,306 W Noble Ave,Williston,FL,32696,Hardee's
223,15821 Hwy 231 N,Youngstown,FL,32466,Hardee's
224,36502 State Rd 54,Zephyrhills,FL,33541,Hardee's
225,1097 Highway 92,Acworth,GA,30102,Hardee's
226,101 Princeton Blvd,Adairsville,GA,30103,Hardee's
227,807 W 4Th St,Adel,GA,31620,Hardee's
228,2324 E Oglethorpe Blvd,Albany,GA,31705,Hardee's
229,436 N Slappey Blvd,Albany,GA,31701,Hardee's
230,922 S PIERCE ST,Alma,GA,31510,Hardee's
231,220 Tripp St,Americus,GA,31709,Hardee's
232,2516 Bouldercrest Rd Se,Atlanta,GA,30316,Hardee's
233,3309 Peach Orchard Rd,Augusta,GA,30906,Hardee's
234,1000 E Shotwell St,Bainbridge,GA,39819,Hardee's
235,653 South Main St,Baxley,GA,31513,Hardee's
236,99 Sandy Run Rd.,Bonaire,GA,31005,Hardee's
237,515 Alabama Ave S,Bremen,GA,30110,Hardee's
238,4428 NEW JESUP HWY,BRUNSWICK,GA,31520,Hardee's
239,1520 Buford Hwy,Buford,GA,30518,Hardee's
240,242 Hwy 49,Byron,GA,31008,Hardee's
241,98 U S Highway 84,Cairo,GA,39828,Hardee's
242,2284 Us 41 Hwy Nw,Calhoun,GA,30701,Hardee's
243,161 Marietta Hwy,Canton,GA,30114,Hardee's
244,1375 S Park St,Carrollton,GA,30117,Hardee's
245,1099 North Third St,Chatsworth,GA,30705,Hardee's
246,12876 N. Highway 27,Chickamauga,GA,30707,Hardee's
247,226 W Crawford St,Colquitt,GA,39837,Hardee's
248,3848 St Marys Rd,Columbus,GA,31906,Hardee's
249,2501 Airport Thruway,Columbus,GA,31904,Hardee's
250,44 Homer Rd,Commerce,GA,30529,Hardee's
251,2930 Highway 138 Sw,Conyers,GA,30094,Hardee's
252,1702 E 16Th Ave,Cordele,GA,31015,Hardee's
253,3112 Hwy 278 W,Covington,GA,30014,Hardee's
254,125 W Maple St,Cumming,GA,30040,Hardee's
255,1301 Glenwood Ave,Dalton,GA,30721,Hardee's
256,580 E Walnut Ave,Dalton,GA,30721,Hardee's
257,350 General Daniel Ave N,Danielsville,GA,30633,Hardee's
258,899 Forrester Dr Se,Dawson,GA,39842,Hardee's
259,310 E 3Rd St,Donalsonville,GA,39845,Hardee's
260,1392 Bowens Mill Rd Sw,Douglas,GA,31533,Hardee's
261,1208 Industrial Blvd,East Ellijay,GA,30540,Hardee's
262,3062 Anvil Block Rd,Ellenwood,GA,30294,Hardee's
263,4360 WASHINGTON RD,Evans,GA,30809,Hardee's
264,975 N Glynn St,Fayetteville,GA,30214,Hardee's
265,260 N Lee St,Forsyth,GA,31029,Hardee's
266,2154 Franklin Parkway,Franklin,GA,30217,Hardee's
267,1086 Battlefield Parkway,Ft Oglethorpe,GA,30742,Hardee's
268,Sonny Perdue Dr. And Dean Forrest Rd,Garden City,GA,31408,Hardee's
269,1619 N Expressway,Griffin,GA,30223,Hardee's
270,4305 WRIGHTSBORO ROAD,GROVETOWN,GA,30813,Hardee's
271,310 Milledgeville Road,Harlem,GA,30814,Hardee's
272,341 Broad St,Hawkinsville,GA,31036,Hardee's
273,21 E Coffee St,Hazlehurst,GA,31539,Hardee's
274,3696 WINDSOR SPRING RD,HEPHZIBAH,GA,30815,Hardee's
275,1090 North 1st St,Jesup,GA,31545,Hardee's
276,813 N Main St,La Fayette,GA,30728,Hardee's
277,603 S Valdosta Rd,Lakeland,GA,31635,Hardee's
278,7212 LAKES BLVD,LAKE PARK,GA,31636,Hardee's
279,14010 Jones St,Lavonia,GA,30553,Hardee's
280,258 Us 19 S,Leesburg,GA,31763,Hardee's
281,112 ELM STREET,LINCOLNTON,GA,30817,Hardee's
282,940 Thornton Rd,Lithia Springs,GA,30122,Hardee's
283,4850 Floyd Rd Sw,Mableton,GA,30126,Hardee's
284,1500 Monticello Rd,Madison,GA,30650,Hardee's
285,182 Keys Ferry St,Mcdonough,GA,30253,Hardee's
286,1575 Highway 20 W,Mcdonough,GA,30253,Hardee's
287,7000 Ruffie Way,Midland,GA,31820,Hardee's
288,315 S Broad St,Monroe,GA,30655,Hardee's
289,1729 1St Ave Se,Moultrie,GA,31768,Hardee's
290,620 South Davis,Nashville,GA,31639,Hardee's
291,231 Temple Ave,Newnan,GA,30263,Hardee's
292,4201 Sharpsburg Mccullum Rd,Newnan,GA,30265,Hardee's
293,4538 Oakwood Rd,Oakwood,GA,30566,Hardee's
294,135 Curry St Ne,Pelham,GA,31779,Hardee's
295,100 GOVERNOR TREUTLEN RD,POOLER,GA,31322,Hardee's
296,5486 Alabama Hwy,Ringgold,GA,30736,Hardee's
297,3110 Cedartown Hwy Sw,Rome,GA,30161,Hardee's
298,1204 Turner Mccall Blvd,Rome,GA,30161,Hardee's
299,300 Mcfarland Ave,Rossville,GA,30741,Hardee's
300,1031 Franklin Springs St,Royston,GA,30662,Hardee's
301,195 Walmart Circle,Sandersville,GA,31082,Hardee's
302,6671 Roswell Rd Ne,Sandy Springs,GA,30328,Hardee's
303,1 GATEWAY BLVD S,SAVANNAH,GA,31419,Hardee's
304,5259 Stone Mountain Hwy,Stone Mountain,GA,30087,Hardee's
305,501 S MAIN ST,SWAINSBORO,GA,30401,Hardee's
306,587 Carrollton Rd,Temple,GA,30179,Hardee's
307,624 N Church St,Thomaston,GA,30286,Hardee's
308,1440 Remington Ave,Thomasville,GA,31792,Hardee's
309,178 Southwell Blvd,Tifton,GA,31794,Hardee's
310,318 S Virginia Ave,Tifton,GA,31794,Hardee's
311,1002 Big A Rd,Toccoa,GA,30577,Hardee's
312,Highway 136 W. Killian,Trenton,GA,30752,Hardee's
313,2901 N Ashley St,Valdosta,GA,31602,Hardee's
314,816 S Patterson St,Valdosta,GA,31601,Hardee's
315,161 Commerce Dr,Villa Rica,GA,30180,Hardee's
316,2609 Plant Ave,Ware,GA,31501,Hardee's
317,2829 Watson Blvd,Warner Robins,GA,31093,Hardee's
318,113 N BROAD ST,WINDER,GA,30680,Hardee's
319,1118 S Clinton,Albia,IA,52531,Hardee's
320,1510 Sw Tradition Dr,Ankeny,IA,50023,Hardee's
321,1930 State St,Bettendorf,IA,52722,Hardee's
322,907 Lawrence Dr,Burlington,IA,52601,Hardee's
323,1981 Blairs Ferry Rd,Cedar Rapids,IA,52402,Hardee's
324,3505 29Th Ave Sw,Cedar Rapids,IA,52404,Hardee's
325,100 E Maple St,Centerville,IA,52544,Hardee's
326,2002 Court Ave,Chariton,IA,50049,Hardee's
327,329 Central Avenue West,Clarion,IA,50525,Hardee's
328,117 S 2nd St,Clinton,IA,52732,Hardee's
329,107 2Nd St,Coralville,IA,52241,Hardee's
330,3200 S Expressway St,Council Bluffs,IA,51501,Hardee's
331,807 W Taylor,Creston,IA,50801,Hardee's
332,5232 Brady Street,Davenport,IA,52806,Hardee's
333,1715 Division St,Davenport,IA,52804,Hardee's
334,8755 University Ave,Des Moines,IA,50325,Hardee's
335,1449 E Euclid Ave,Des Moines,IA,50316,Hardee's
336,915 Army Post Rd,Des Moines,IA,50315,Hardee's
337,2100 Twin Valley Dr,Dubuque,IA,52003,Hardee's
338,105 S 9Th Ave,Eldridge,IA,52748,Hardee's
339,1400 Industrial Park Road,Ellsworth,IA,50075,Hardee's
340,1736 Central Ave,Estherville,IA,51334,Hardee's
341,6 S 15Th St,Fort Dodge,IA,50501,Hardee's
342,1431 Avenue H,Fort Madison,IA,52627,Hardee's
343,605 Highway 18 West,Garner,IA,50438,Hardee's
344,10 3rd Street Sw,Hampton,IA,50441,Hardee's
345,2010 Indorf Avenue,Holstein,IA,51025,Hardee's
346,1203 10Th Ave N,Humboldt,IA,50548,Hardee's
347,300 East Trail Ridge Ave,Indianola,IA,50125,Hardee's
348,1405 S Lincoln St,Knoxville,IA,50138,Hardee's
349,1205 Hawkeye Ave Sw,Le Mars,IA,51031,Hardee's
350,205 W Main,Manchester,IA,52057,Hardee's
351,902 S Center St,Marshalltown,IA,50158,Hardee's
352,515 S Delaware,Mason City,IA,50401,Hardee's
353,102 Highway 1 S,Mount Vernon,IA,52314,Hardee's
354,905 E Washington St,Mt Pleasant,IA,52641,Hardee's
355,705 Grandview Ave,Muscatine,IA,52761,Hardee's
356,1205 W 19Th St S,Newton,IA,50208,Hardee's
357,809 Albany Place,Orange City,IA,51041,Hardee's
358,1787 Venture Dr,Ottumwa,IA,52501,Hardee's
359,505 2Nd Ave,Sheldon,IA,51201,Hardee's
360,660 N Main,Sioux Center,IA,51250,Hardee's
361,910 Gordon Dr,Sioux City,IA,51101,Hardee's
362,4440 Sergeant Road,Sioux City,IA,51106,Hardee's
363,704 South Grand,Spencer,IA,51301,Hardee's
364,605 Flindt Drive,Storm Lake,IA,50588,Hardee's
365,601 Cedar St.,Tipton,IA,52772,Hardee's
366,118 W Highway 30,Toledo,IA,52342,Hardee's
367,805 Franklin St,Waterloo,IA,50703,Hardee's
368,1410 Flammang Dr,Waterloo,IA,50702,Hardee's
369,503 Rossville Rd,Waukon,IA,52172,Hardee's
370,117 Hwy 150 North,West Union,IA,52175,Hardee's
371,1007 N John Wayne Dr,Winterset,IA,50273,Hardee's
372,140 E Vienna St,Anna,IL,62906,Hardee's
373,5515 S Adams St,Bartonville,IL,61607,Hardee's
374,10095 Us Hwy 67,Beardstown,IL,62618,Hardee's
375,2 S Belt E,Belleville,IL,62220,Hardee's
376,1617 N Belt West,Belleville,IL,62226,Hardee's
377,2516 Green Mount Commons Dr,Belleville,IL,62221,Hardee's
378,629 W Main St,Benton,IL,62812,Hardee's
379,8800 Old US Highway 50,Breese,IL,62230,Hardee's
380,220 Green St,Bushnell,IL,61422,Hardee's
381,638 N Main St,Canton,IL,61520,Hardee's
382,454 N Broad St,Carlinville,IL,62626,Hardee's
383,1251 12th St,Carlyle,IL,62231,Hardee's
384,1308 S Division St,Carterville,IL,62918,Hardee's
385,123 N. Madison,Carthage,IL,62321,Hardee's
386,8850 Petroff Dr,Caseyville,IL,62232,Hardee's
387,750 W Broadway,Centralia,IL,62801,Hardee's
388,1806 W Bradley Ave,Champaign,IL,61821,Hardee's
389,331 N Main St,Chatham,IL,62629,Hardee's
390,217 W Holmes St,Chester,IL,62233,Hardee's
391,108 N 4Th St,Chillicothe,IL,61523,Hardee's
392,307 S Grant St,Clinton,IL,61727,Hardee's
393,519 Belt Line Rd,Collinsville,IL,62234,Hardee's
394,15 W Fairchild St,Danville,IL,61832,Hardee's
395,1080 W Eldorado St,Decatur,IL,62522,Hardee's
396,3925 County Fair Drive,Decatur,IL,62526,Hardee's
397,619 S Galena St,Dixon,IL,61021,Hardee's
398,322 S Washington St,Du Quoin,IL,62832,Hardee's
399,12 W Northbrook Dr,Dwight,IL,60420,Hardee's
400,4008 Kennedy Dr,East Moline,IL,61244,Hardee's
401,101 N Main St,East Peoria,IL,61611,Hardee's
402,1505 W Fayette Ave,Effingham,IL,62401,Hardee's
403,1205 Us Highway 45 N,Eldorado,IL,62930,Hardee's
404,507 W Center St,Eureka,IL,61530,Hardee's
405,1413 Knox Highway 9,Galesburg,IL,61401,Hardee's
406,913 East Main,Galesburg,IL,61401,Hardee's
407,2163 S Oakwood Ave,Geneseo,IL,61254,Hardee's
408,"4207 S, Il-159",Glen Carbon,IL,62034,Hardee's
409,2720 Godfrey Rd,Godfrey,IL,62035,Hardee's
410,3249 W Chain Of Rocks,Granite City,IL,62040,Hardee's
411,700 E Poplar,Harrisburg,IL,62946,Hardee's
412,401 W Dearborn St,Havana,IL,62644,Hardee's
413,615 S Park Ave,Herrin,IL,62948,Hardee's
414,12620 State Rte 143,Highland,IL,62249,Hardee's
415,201 School Street,Hillsboro,IL,62049,Hardee's
416,842 W Morton Ave,Jacksonville,IL,62650,Hardee's
417,528 S State St,Jerseyville,IL,62052,Hardee's
418,1310 State St,Lawrenceville,IL,62439,Hardee's
419,539 Woodlawn Rd,Lincoln,IL,62656,Hardee's
420,1106 N Carbon St,Marion,IL,62959,Hardee's
421,1117 Lakeland Blvd,Mattoon,IL,61938,Hardee's
422,601 Ferry St,Metropolis,IL,62960,Hardee's
423,Us 67 & 3rd Avenue,Milan,IL,61264,Hardee's
424,2301 16Th Street,Moline,IL,61265,Hardee's
425,309 N Market St,Monticello,IL,61856,Hardee's
426,St. Rt 6 & Brisbin Rd,Morris,IL,60450,Hardee's
427,4333 Broadway St,Mount Vernon,IL,62864,Hardee's
428,1600 Broadway St,Mount Vernon,IL,62864,Hardee's
429,340 Walnut St,Murphysboro,IL,62966,Hardee's
430,180 S Mill St,Nashville,IL,62263,Hardee's
431,8690 Richter School Rd,New Baden,IL,62265,Hardee's
432,701 West Jourdan Avenue,Newton,IL,62448,Hardee's
433,1523 E College Ave,Normal,IL,61761,Hardee's
434,17919 Newton Road,Oakwood,IL,61858,Hardee's
435,110 East Highway 50,O Fallon,IL,62269,Hardee's
436,124 Hartman Ln,O Fallon,IL,62269,Hardee's
437,1001 W Walnut St,Oglesby,IL,61348,Hardee's
438,2625 Columbus St,Ottawa,IL,61350,Hardee's
439,316 S Main St,Paris,IL,61944,Hardee's
440,451 W Ottawa Rd,Paxton,IL,60957,Hardee's
441,105 N 5Th St,Pekin,IL,61554,Hardee's
442,3505 Ne Adams St,Peoria,IL,61603,Hardee's
443,8787 N Knoxville Ave,Peoria,IL,61615,Hardee's
444,3909 W War Memorial Drive,Peoria,IL,61615,Hardee's
445,3431 N University Street,Peoria,IL,61604,Hardee's
446,401 E Sangamon Ave,Petersburg,IL,62675,Hardee's
447,1526 No 12Th St,Quincy,IL,62301,Hardee's
448,2916 Broadway,Quincy,IL,62301,Hardee's
449,502 E. Main Street,Robinson,IL,62454,Hardee's
450,400 Steward Rd,Rochelle,IL,61068,Hardee's
451,503 First Ave,Rock Falls,IL,61071,Hardee's
452,4628 S Main St,Rockford,IL,61101,Hardee's
453,1419 38th St,Rock Island,IL,61201,Hardee's
454,13477 Quality Dr,Roscoe,IL,61073,Hardee's
455,600 W Clinton St,Rushville,IL,62681,Hardee's
456,501 W Main St,Salem,IL,62881,Hardee's
457,1533 E 162nd Street,South Holland,IL,60473,Hardee's
458,1835 Sangamon Ave,Springfield,IL,62702,Hardee's
459,2501 Stevenson Dr,Springfield,IL,62703,Hardee's
460,1700 Wabash Ave,Springfield,IL,62704,Hardee's
461,600 W Jefferson St,Springfield,IL,62702,Hardee's
462,3217 E Clear Lake Ave,Springfield,IL,62702,Hardee's
463,117 N Hibbard,Staunton,IL,62088,Hardee's
464,203 W Jackson,Sullivan,IL,61951,Hardee's
465,809 Moore Ave,Tuscola,IL,61953,Hardee's
466,905 N Springfield St,Virden,IL,62690,Hardee's
467,1102 Peoria St,Washington,IL,61571,Hardee's
468,912 N Market,Waterloo,IL,62298,Hardee's
469,1099 Edwardsville Rd.,Wood River,IL,62095,Hardee's
470,5627 S Scatterfield Road,Anderson,IN,46013,Hardee's
471,3443 W Maumee St,Angola,IN,46703,Hardee's
472,1510 16TH ST,BEDFORD,IN,47421,Hardee's
473,3301 W 3RD ST,BLOOMINGTON,IN,47404,Hardee's
474,211 N Main St,Bluffton,IN,46714,Hardee's
475,304 E National Ave,Brazil,IN,47834,Hardee's
476,1741 E State Rd 163,Clinton,IN,47842,Hardee's
477,500 N Eastern Ave,Connersville,IN,47331,Hardee's
478,549 E MAIN ST,DANVILLE,IN,46122,Hardee's
479,240 N 13TH ST,DECATUR,IN,46733,Hardee's
480,12000 N HARTMAN DR,EDINBURGH,IN,46124,Hardee's
481,2620 Cassopolis St,Elkhart,IN,46514,Hardee's
482,2820 E Main St,Elwood,IN,46036,Hardee's
483,1501 N Boeke Rd,Evansville,IN,47711,Hardee's
484,4400 Covert Ave,Evansville,IN,47714,Hardee's
485,2315 W Illinois St,Evansville,IN,47712,Hardee's
486,11660 Allisonville Rd,Fishers,IN,46038,Hardee's
487,5918 LIMA RD,FORT WAYNE,IN,46818,Hardee's
488,2720 MAPLECREST ROAD,FORT WAYNE,IN,46815,Hardee's
489,4950 Beaner Blvd,Gas City,IN,46933,Hardee's
490,2201 Cr 17,Goshen,IN,46528,Hardee's
491,1215 W Main St,Greenfield,IN,46140,Hardee's
492,1881 N State St,Greenfield,IN,46140,Hardee's
493,2209 NORTH JEFFERSON STREET,HUNTINGTON,IN,46750,Hardee's
494,8009 PENDLETON PIKE,INDIANAPOLIS,IN,46226,Hardee's
495,4401 E 10TH STREET,INDIANAPOLIS,IN,46201,Hardee's
496,5950 BROOKVILLE RD,INDIANAPOLIS,IN,46219,Hardee's
497,921 E WASHINGTON ST,INDIANAPOLIS,IN,46202,Hardee's
498,6313 W WASHINGTON ST,INDIANAPOLIS,IN,46241,Hardee's
499,8015 S MERIDIAN ST,INDIANAPOLIS,IN,46217,Hardee's
500,9020 E 21ST ST,INDIANAPOLIS,IN,46229,Hardee's
501,8601 ALLISONVILLE RD,INDIANAPOLIS,IN,46250,Hardee's
502,1426 E 86TH ST,INDIANAPOLIS,IN,46240,Hardee's
503,4945 S EMERSON AVE,INDIANAPOLIS,IN,46203,Hardee's
504,710 W 10TH ST,INDIANAPOLIS,IN,46202,Hardee's
505,5016 HARDING LN,INDIANAPOLIS,IN,46217,Hardee's
506,4915 E. 56TH STREET,INDIANAPOLIS,IN,46220,Hardee's
507,3005 W 86TH ST,INDIANAPOLIS,IN,46268,Hardee's
508,2525 N HIGH SCHOOL RD,INDIANAPOLIS,IN,46224,Hardee's
509,762 Second St,Jasper,IN,47546,Hardee's
510,301 W Court Ave,Jeffersonville,IN,47130,Hardee's
511,2740 Allison Lane,Jeffersonville,IN,47130,Hardee's
512,1500 E Morgan St,Kokomo,IN,46901,Hardee's
513,710 Sagamore Parkway N,Lafayette,IN,47904,Hardee's
514,2400 E 200 N,Lafayette,IN,47905,Hardee's
515,W Eads Pkwy,Lawrenceburg,IN,47025,Hardee's
516,6582 S. State Road 66,Leavenworth,IN,47137,Hardee's
517,425 S LEBANON ST,LEBANON,IN,46052,Hardee's
518,1121 E Market St,Logansport,IN,46947,Hardee's
519,330 Clifty Drive,Madison,IN,47250,Hardee's
520,3808 S Western Ave,Marion,IN,46953,Hardee's
521,589 STATE ROAD 39 BYP S,MARTINSVILLE,IN,46151,Hardee's
522,5223 Franklin Street,Michigan City,IN,46360,Hardee's
523,227 E MCGALLIARD ROAD,MUNCIE,IN,47303,Hardee's
524,4033 Bell Rd,Newburgh,IN,47630,Hardee's
525,129 S Memorial Dr,New Castle,IN,47362,Hardee's
526,1001 N US HIGHWAY 31,NEW WHITELAND,IN,46184,Hardee's
527,2500 CONNER ST,NOBLESVILLE,IN,46060,Hardee's
528,2305 N. Highway 3,North Vernon,IN,47265,Hardee's
529,789 NORTH GOSPEL,PAOLI,IN,47454,Hardee's
530,7160 S STATE RD 67,PENDLETON,IN,46064,Hardee's
531,301 N Broadway,Peru,IN,46970,Hardee's
532,1630 E MAIN ST,PLAINFIELD,IN,46168,Hardee's
533,2952 Gary Drive,Plymouth,IN,46563,Hardee's
534,2698 Us Highway 35 N,Richmond,IN,47374,Hardee's
535,1925 Chester Blvd,Richmond,IN,47374,Hardee's
536,200 S Main St,Rushville,IN,46173,Hardee's
537,1128 W Mcclain Ave,Scottsburg,IN,47170,Hardee's
538,240 S. Indiana Ave,Sellersburg,IN,47172,Hardee's
539,207 W Ireland Rd,South Bend,IN,46614,Hardee's
540,888 W State Rd 154,Sullivan,IN,47882,Hardee's
541,200 N Third St,Terre Haute,IN,47807,Hardee's
542,3381 S Us Highway 41,Terre Haute,IN,47802,Hardee's
543,1730 E Harlan Drive,Terre Haute,IN,47802,Hardee's
544,1875 Campbell Crossing,Tipton,IN,46072,Hardee's
545,1906 Hart Street,Vincennes,IN,47591,Hardee's
546,3360 Lake City Hwy,Warsaw,IN,46580,Hardee's
547,2004 E National Hwy,Washington,IN,47501,Hardee's
548,2232 Fair Road,Abilene,KS,67410,Hardee's
549,1126 E 12Th Ave,Emporia,KS,66801,Hardee's
550,8021 State Ave,Kansas City,KS,66112,Hardee's
551,2400 E Kansas Ave,Mcpherson,KS,67460,Hardee's
552,815 S Parker St,Olathe,KS,66061,Hardee's
553,203 E 27th Ave,Ottawa,KS,66067,Hardee's
554,10500 Metcalf Ave,Overland Park,KS,66212,Hardee's
555,1015 S Broadway ST,Pittsburg,KS,66762,Hardee's
556,2424 Sw 6Th Ave,Topeka,KS,66606,Hardee's
557,2100 Sw Wanamaker Rd,Topeka,KS,66614,Hardee's
558,707 N 3Rd St,Bardstown,KY,40004,Hardee's
559,1808 MAIN ST,BEAVER DAM,KY,42320,Hardee's
560,61 Us Highway 68 W,Benton,KY,42025,Hardee's
561,241 BRENNER ST,BOWLING GREEN,KY,42101,Hardee's
562,127 CUMBERLAND TRACE RD,BOWLING GREEN,KY,42103,Hardee's
563,592 INTERSTATE DRIVE,BOWLING GREEN,KY,42101,Hardee's
564,2370 RUSSELLVILLE RD,BOWLING GREEN,KY,42101,Hardee's
565,1303 East Broadway,Campbellsville,KY,42718,Hardee's
566,90 DOHONEY TRACE,COLUMBIA,KY,42728,Hardee's
567,411 S MAIN ST,CORBIN,KY,40701,Hardee's
568,222 Highway 770,Corbin,KY,40701,Hardee's
569,1716 EAST MAIN STREET,CUMBERLAND,KY,40823,Hardee's
570,681 US HWY 27 S,CYNTHIANA,KY,41031,Hardee's
571,1706 N Dixie Hwy,Elizabethtown,KY,42701,Hardee's
572,601 South Ring Road,Elizabethtown,KY,42701,Hardee's
573,104 Buffalo Creek Dr,Elizabethtown,KY,42701,Hardee's
574,705 Schenkel Ln,Frankfort,KY,40601,Hardee's
575,1248 Us Highway 127 S,Frankfort,KY,40601,Hardee's
576,807 S Main St,Franklin,KY,42134,Hardee's
577,240 S L Roger Wells Blvd,Glasgow,KY,42141,Hardee's
578,2000 Edmonton Road,Glasgow,KY,42141,Hardee's
579,801 NORTH CAROL MALONE BLVD.,GRAYSON,KY,41143,Hardee's
580,840 N MAIN ST,GREENVILLE,KY,42345,Hardee's
581,325 Veterans Drive,Hanson,KY,42413,Hardee's
582,1120 OLD HWY 60 EAST,HARDINSBURG,KY,40143,Hardee's
583,1548 S. US HWY 421 BYPASS,HARLAN,KY,40831,Hardee's
584,1326 KENTUCKY HIGHWAY 15,HAZARD,KY,41701,Hardee's
585,100 N Green St,Henderson,KY,42420,Hardee's
586,101 Lincoln Dr,Hodgenville,KY,42748,Hardee's
587,3050 Fort Campbell Blvd,Hopkinsville,KY,42240,Hardee's
588,11700 Fort Campbell Blvd.,Hopkinsville,KY,42262,Hardee's
589,25 Fire House Ln,Hyden,KY,41749,Hardee's
590,98 RICHMOND ROAD,IRVINE,KY,40336,Hardee's
591,HIGHWAY 15 SOUTH,JACKSON,KY,41339,Hardee's
592,9433 Highway 805,Jenkins,KY,41537,Hardee's
593,100 Shelby Junction Lane,Junction City,KY,40440,Hardee's
594,50 CORPORATE DR,LEBANON,KY,40033,Hardee's
595,406 S Main St,Leitchfield,KY,42754,Hardee's
596,1125 WINCHESTER RD,LEXINGTON,KY,40505,Hardee's
597,202 W NEW CIRCLE RD,LEXINGTON,KY,40505,Hardee's
598,2990 RICHMOND RD,LEXINGTON,KY,40509,Hardee's
599,815 N Wallace Wilkinson Blvd,Liberty,KY,42539,Hardee's
600,814 S MAIN ST,LONDON,KY,40741,Hardee's
601,1974 WEST HIGHWAY 192,LONDON,KY,40741,Hardee's
602,67 N HIGHWAY 3,LOUISA,KY,41230,Hardee's
603,2909 Fern Valley Rd,Louisville,KY,40213,Hardee's
604,3459 Taylor Blvd,Louisville,KY,40215,Hardee's
605,11201 Oscar Road,Louisville,KY,40241,Hardee's
606,5352 Dixie Hwy,Louisville,KY,40216,Hardee's
607,770 E Center St,Madisonville,KY,42431,Hardee's
608,1033 Paris Rd,Mayfield,KY,42066,Hardee's
609,1504 Us Highway 68,Maysville,KY,41056,Hardee's
610,1310 N 12Th Street,Middlesboro,KY,40965,Hardee's
611,1445 N MAIN ST,MONTICELLO,KY,42633,Hardee's
612,1691 FLEMINGSBURG RD,MOREHEAD,KY,40351,Hardee's
613,127 Veterans Way,Morgantown,KY,42261,Hardee's
614,215 INDIAN MOUND DRIVE,MOUNT STERLING,KY,40353,Hardee's
615,RT 25,MT VERNON,KY,40456,Hardee's
616,505 N 12th St,Murray,KY,42071,Hardee's
617,903 S MAIN ST,NICHOLASVILLE,KY,40356,Hardee's
618,3101 Frederica St,Owensboro,KY,42301,Hardee's
619,5104 Hinkleville Rd,Paducah,KY,42001,Hardee's
620,3024 Lone Oak Rd,Paducah,KY,42003,Hardee's
621,1726 Broadway St,Paducah,KY,42001,Hardee's
622,3700 Clarks River Rd,Paducah,KY,42003,Hardee's
623,545 NORTH MAYO TRAIL,PAINTSVILLE,KY,41240,Hardee's
624,1411 MAIN ST,PARIS,KY,40361,Hardee's
625,667 Hambley,Pikeville,KY,41501,Hardee's
626,909 N. LAKE DR.,PRESTONSBURG,KY,41653,Hardee's
627,370 Us Highway 62 W,Princeton,KY,42445,Hardee's
628,524 EASTERN BYPASS,RICHMOND,KY,40475,Hardee's
629,103 S KEENELAND DR,RICHMOND,KY,40475,Hardee's
630,2378 Highway 127,Russell Springs,KY,42642,Hardee's
631,313 Porter Rd,Sadieville,KY,40370,Hardee's
632,5705 N Highway 27,Science Hill,KY,42553,Hardee's
633,1927 Midland Trail,Shelbyville,KY,40065,Hardee's
634,409 S HIGHWAY 27,SOMERSET,KY,42501,Hardee's
635,3895 S Highway 27,Somerset,KY,42501,Hardee's
636,378 Southside,South Williamson,KY,41503,Hardee's
637,801 Bardstown Road,Springfield,KY,40069,Hardee's
638,220 S MAIN ST,STANTON,KY,40380,Hardee's
639,1289 West Main St,West Liberty,KY,41472,Hardee's
640,730 S 10Th St,Williamsburg,KY,40769,Hardee's
641,1466 W LEXINGTON AVE,WINCHESTER,KY,40391,Hardee's
642,300 Cumberland St,Bogalusa,LA,70427,Hardee's
643,1118 Lowe Grout Rd,Iowa,LA,70647,Hardee's
644,4158 I-49 Service Rd.,Opelousas,LA,70570,Hardee's
645,800 Woods Rd,Cambridge,MD,21613,Hardee's
646,501 Church Hill Rd,Centreville,MD,21617,Hardee's
647,9521 Ocean Hwy,Delmar,MD,21875,Hardee's
648,8335 Ocean Gtwy,Easton,MD,21601,Hardee's
649,881 E Pulaski Hwy,Elkton,MD,21921,Hardee's
650,1699 Crain Hwy S,Glen Burnie,MD,21061,Hardee's
651,42 East Main Street,Hancock,MD,21750,Hardee's
652,2635 Annapolis Rd,Hanover,MD,21076,Hardee's
653,718 Nursery Rd,Linthicum,MD,21090,Hardee's
654,4111 Mountain Rd,Pasadena,MD,21122,Hardee's
655,125 Pocomoke Marketplace,Pocomoke City,MD,21851,Hardee's
656,30362 Mt Vernon Rd,Princess Anne,MD,21853,Hardee's
657,1301 S Salisbury Blvd,Salisbury,MD,21801,Hardee's
658,2403 N Salisbury Blvd,Salisbury,MD,21801,Hardee's
659,1157 Shopping Center Rd,Stevensville,MD,21666,Hardee's
660,6560 Dixie Highway,Bridgeport,MI,48722,Hardee's
661,606 N Lincoln Rd,Escanaba,MI,49829,Hardee's
662,1609 Nadeau Road,Frenchtown,MI,48162,Hardee's
663,7300 W. Grand River Ave.,Grand Ledge,MI,48837,Hardee's
664,23240 John R Rd,Hazel Park,MI,48030,Hardee's
665,9790 Adams St,Holland,MI,49423,Hardee's
666,1600 HIGHWAY 71,INTERNATIONAL FALLS,MI,56649,Hardee's
667,315 N Stephenson Ave,Iron Mountain,MI,49801,Hardee's
668,350 East U.S. Hwy 2,Manistique,MI,49854,Hardee's
669,1120 W Washington St,Marquette,MI,49855,Hardee's
670,18720 Partello Rd,Marshall,MI,49068,Hardee's
671,14137 Plank Road,Milan,MI,48160,Hardee's
672,525 E M-28,Munising,MI,49862,Hardee's
673,734 S 11th St,Niles,MI,49120,Hardee's
674,534 E MAIN ST,OWOSSO,MI,48867,Hardee's
675,35155 Mound Rd,Sterling Heights,MI,48310,Hardee's
676,1147 S Broadway Ave,Albert Lea,MN,56007,Hardee's
677,605 50Th Ave W,Alexandria,MN,56308,Hardee's
678,1406 4Th St Nw,Austin,MN,55912,Hardee's
679,205 Paul Bunyan Dr Nw,Bemidji,MN,56601,Hardee's
680,119 Washington St,Brainerd,MN,56401,Hardee's
681,I-35 & Hwy 97,Columbus,MN,55025,Hardee's
682,2000 N State St,Fairmont,MN,56031,Hardee's
683,1940 Cardinal Ln,Faribault,MN,55021,Hardee's
684,2524 College Way,Fergus Falls,MN,56537,Hardee's
685,1250 S Pokegama Ave,Grand Rapids,MN,55744,Hardee's
686,147 Highway 212 E,Granite Falls,MN,56241,Hardee's
687,2527 E 13TH AVE,HIBBING,MN,55746,Hardee's
688,401 1/2 Fire Monument Rd,Hinckley,MN,55037,Hardee's
689,1409 Madison Ave,Mankato,MN,56001,Hardee's
690,101 W Lind Ct,Mankato,MN,56001,Hardee's
691,1402 E College Dr,Marshall,MN,56258,Hardee's
692,925 1St St E,Milaca,MN,56353,Hardee's
693,3402 28Th Avenue South,Moorhead,MN,56560,Hardee's
694,240 Highway 65 S,Mora,MN,55051,Hardee's
695,1710 Westridge Rd,New Ulm,MN,56073,Hardee's
696,7099 11Th St N,Oakdale,MN,55128,Hardee's
697,1120 Hoffman Dr,Owatonna,MN,55060,Hardee's
698,8708 Crossing Dr.,Rockville,MN,56301,Hardee's
699,369 Hamline Ave N,Saint Paul,MN,55104,Hardee's
700,1180 Main St S,Sauk Centre,MN,56378,Hardee's
701,320 Main St W,Sleepy Eye,MN,56085,Hardee's
702,2102 Enterprises Dr,St. Charles,MN,55972,Hardee's
703,151 County Road 120,St. Cloud,MN,56303,Hardee's
704,1400 13Th St,Virginia,MN,55792,Hardee's
705,204 Minnesota Avenue,Walker,MN,56484,Hardee's
706,1704 1st Street S,Willmar,MN,56001,Hardee's
707,250 3rd Ave,Windom,MN,56101,Hardee's
708,12520 Fremont Ave,Zimmerman,MN,55398,Hardee's
709,2010 South Elliott Avenue,Aurora,MO,65605,Hardee's
710,910 Sw Missouri RTE 7,Blue Springs,MO,64014,Hardee's
711,1010 Highway K,Bonne Terre,MO,63628,Hardee's
712,2501 W Ashley Rd,Boonville,MO,65233,Hardee's
713,18054 Highway 161,Bowling Green,MO,63334,Hardee's
714,19001 Missouri Business 13,Branson West,MO,65737,Hardee's
715,1100 W Dallas St,Buffalo,MO,65622,Hardee's
716,2115 William St,Cape Girardeau,MO,63703,Hardee's
717,2516 South Grand,Carthage,MO,64836,Hardee's
718,17368 Chesterfield Airport Rd,Chesterfield,MO,63005,Hardee's
719,1616 East Ohio Street,Clinton,MO,64735,Hardee's
720,702 N Franklin St,Cuba,MO,65453,Hardee's
721,12974 Highway 21,De Soto,MO,63020,Hardee's
722,301 E 4Th St,Eldon,MO,65026,Hardee's
723,545 Main Street,Fenton,MO,63026,Hardee's
724,1305 Veterans Blvd,Festus,MO,63028,Hardee's
725,501 E Highway 72,Fredericktown,MO,63645,Hardee's
726,2900 James Rd,Hannibal,MO,63401,Hardee's
727,4699 Gravois Rd,House Springs,MO,63051,Hardee's
728,926 S Sam Houston Blvd,Houston,MO,65483,Hardee's
729,4011 S Noland Rd,Independence,MO,64055,Hardee's
730,17701 E Us Highway 24,Independence,MO,64056,Hardee's
731,421 E Jackson Blvd,Jackson,MO,63755,Hardee's
732,3601 Country Club Dr,Jefferson City,MO,65109,Hardee's
733,1810 South Main Street,Joplin,MO,64804,Hardee's
734,1641 W 7th Street,Joplin,MO,64801,Hardee's
735,4013 Hwy 43,Joplin,MO,64804,Hardee's
736,6323 Independence Ave,Kansas City,MO,64125,Hardee's
737,5373 East Bannister Road,Kansas City,MO,64137,Hardee's
738,1411 S Baltimore St,Kirksville,MO,63501,Hardee's
739,10 Centre On The Lake,Lake Saint Louis,MO,63367,Hardee's
740,100 Plaza Sq,Leadington,MO,63601,Hardee's
741,1300 S Jefferson,Lebanon,MO,65536,Hardee's
742,1100 Sw 3Rd St,Lees Summit,MO,64081,Hardee's
743,2580 Lemay Ferry Rd,Lemay,MO,63125,Hardee's
744,3313 Georgia Street,Louisiana,MO,63353,Hardee's
745,1703 N Missouri St,Macon,MO,63552,Hardee's
746,908 N DOUGLASS ST,MALDEN,MO,63863,Hardee's
747,707 W Jackson St,Mexico,MO,65265,Hardee's
748,308 Hwy 24 E,Moberly,MO,65270,Hardee's
749,1003 Us Highway 24/36 E,Monroe City,MO,63456,Hardee's
750,530 S Neosho Blvd,Neosho,MO,64850,Hardee's
751,17550 Hwy 19,New London,MO,63459,Hardee's
752,1212 W Osage,Pacific,MO,63069,Hardee's
753,500 E Main Cross St,Palmyra,MO,63461,Hardee's
754,11 N Kingshighway St,Perryville,MO,63775,Hardee's
755,101 S WESTWOOD BLVD,POPLAR BLUFF,MO,63901,Hardee's
756,103 Healthway Drive,Potosi,MO,63664,Hardee's
757,2023 Zumbehl Rd,Saint Charles,MO,63303,Hardee's
758,2701 Mo-94 N.,Saint Charles,MO,63301,Hardee's
759,3911 N Belt Hwy,Saint Joseph,MO,64506,Hardee's
760,4321 Butler Hill Rd,Saint Louis,MO,63128,Hardee's
761,2110 Hampton Ave,Saint Louis,MO,63139,Hardee's
762,10858 Lilac Ave,Saint Louis,MO,63137,Hardee's
763,501 Mid Rivers Mall Dr,Saint Peters,MO,63376,Hardee's
764,715 E Broadway Blvd,Sedalia,MO,65301,Hardee's
765,1105 S Main St,Sikeston,MO,63801,Hardee's
766,3465 W Chestnut Expwy,Springfield,MO,65802,Hardee's
767,2260 North Glenstone,Springfield,MO,65803,Hardee's
768,1444 East Battlefield,Springfield,MO,65804,Hardee's
769,1515 W Battlefield,Springfield,MO,65807,Hardee's
770,400 N State Hwy 125,Strafford,MO,65757,Hardee's
771,1849 E 9Th St,Trenton,MO,64683,Hardee's
772,231 E Highway 47,Troy,MO,63379,Hardee's
773,300 US 50E,Union,MO,63084,Hardee's
774,850 Meramec Station Rd,Valley Park,MO,63088,Hardee's
775,902 Meramec Station Rd,Valley Park,MO,63088,Hardee's
776,228 W 5Th St,Washington,MO,63090,Hardee's
777,1944 Wentzville Parkway,Wentzville,MO,63385,Hardee's
778,905 Porter Wagoner Blvd,West Plains,MO,65775,Hardee's
779,909 HWY 278 ST EAST,Amory,MS,38821,Hardee's
780,693 Hwy 6 East,Batesville,MS,38606,Hardee's
781,2813 Hwy 15,Bay Springs,MS,39422,Hardee's
782,1202 N 2ND ST,Booneville,MS,38829,Hardee's
783,3530 Highway 49,Collins,MS,39428,Hardee's
784,809 Hwy 98 Byp,Columbia,MS,39429,Hardee's
785,1460 Old Aberdeen Rd,Columbus,MS,39705,Hardee's
786,203 Alabama St,Columbus,MS,39702,Hardee's
787,10324 Diberville Blvd,Diberville,MS,39540,Hardee's
788,600 South Adams St,Fulton,MS,38843,Hardee's
789,2403 Highway 90,Gautier,MS,39553,Hardee's
790,1651 Highway 1 S,Greenville,MS,38701,Hardee's
791,12219 Hwy 49 N,Gulfport,MS,39503,Hardee's
792,4964 Hardy St,Hattiesburg,MS,39402,Hardee's
793,749 Goodman Rd West,Horn Lake,MS,38637,Hardee's
794,444 N Jackson Street,Houston,MS,38851,Hardee's
795,1212 Hwy 82 East,Indianola,MS,38751,Hardee's
796,1610 1ST American Dr,Iuka,MS,38852,Hardee's
797,710 N 16Th Ave,Laurel,MS,39440,Hardee's
798,2621 Ellisville Blvd,Laurel,MS,39440,Hardee's
799,913 Chantilly St,Laurel,MS,39440,Hardee's
800,311 North Church Ave.,Louisville,MS,39339,Hardee's
801,24 Cowart St,Lucedale,MS,39452,Hardee's
802,1790 Simpson Highway 49,Magee,MS,39111,Hardee's
803,134 N Hills St,Meridian,MS,39305,Hardee's
804,2102 N Frontage Rd,Meridian,MS,39301,Hardee's
805,6712 Hwy 63 N,Moss Point,MS,39563,Hardee's
806,241 East Side Drive,Newton,MS,39345,Hardee's
807,7015 HACKS CROSS ROAD,OLIVE BRANCH,MS,38654,Hardee's
808,2701 Denny Ave,Pascagoula,MS,39567,Hardee's
809,106 W Central Ave,Petal,MS,39465,Hardee's
810,1001 Beacon St,Philadelphia,MS,39350,Hardee's
811,1102 Memorial Blvd,Picayune,MS,39466,Hardee's
812,124 HWY 15 NORTH,Pontotoc,MS,38863,Hardee's
813,1016 S Main St,Poplarville,MS,39470,Hardee's
814,302 S Archusa Ave,Quitman,MS,39355,Hardee's
815,112 WILLOW BROOK DR,Saltillo,MS,38866,Hardee's
816,411 Highway 12 East,Starkville,MS,39759,Hardee's
817,477 E Main St,Tupelo,MS,38804,Hardee's
818,2439 West Main Street,Tupelo,MS,38801,Hardee's
819,5016 Raymond St,Tupelo,MS,38801,Hardee's
820,903 Azalea Dr,Waynesboro,MS,39367,Hardee's
821,6757 Hwy 45 South,West Point,MS,39773,Hardee's
822,2404 Central Ave,Billings,MT,59102,Hardee's
823,608 N 27Th St,Billings,MT,59101,Hardee's
824,2625 10Th Ave S,Great Falls,MT,59405,Hardee's
825,1270 N Highway 47,Hardin,MT,59034,Hardee's
826,320 Euclid Ave,Helena,MT,59601,Hardee's
827,8077 Hwy 10 West,Missoula,MT,59808,Hardee's
828,1664 NC HWY 5,Aberdeen,NC,28315,Hardee's
829,1304 Sandhills Blvd N,Aberdeen,NC,28315,Hardee's
830,104 NC 561 EAST,AHOSKIE,NC,27910,Hardee's
831,705 LEONARD AVE,ALBEMARLE,NC,28001,Hardee's
832,2765 stewart Rd,Andrews,NC,28901,Hardee's
833,253 N RALEIGH STREET,ANGIER,NC,27501,Hardee's
834,10544 US Hwy 64,Apex,NC,27523,Hardee's
835,457 E Dixie Dr,Asheboro,NC,27203,Hardee's
836,71 Hendersonville Rd,Asheville,NC,28803,Hardee's
837,307 Smokey Park Hwy,Asheville,NC,28806,Hardee's
838,1411 W 3RD ST,AYDEN,NC,28513,Hardee's
839,6474 Deans St,Bailey,NC,27807,Hardee's
840,7047 NC HIGHWAY 4,BATTLEBORO,NC,27809,Hardee's
841,870 Hwy 264 E,Belhaven,NC,27810,Hardee's
842,611 NORTH MAIN STREET,BELMONT,NC,28012,Hardee's
843,11959 NC 210,BENSON,NC,27504,Hardee's
844,120 West Main Street,Beulaville,NC,28518,Hardee's
845,519 E Main St,Biscoe,NC,27209,Hardee's
846,1211 N Main Street,Bladenboro,NC,28320,Hardee's
847,344 E KING ST,BOONE,NC,28607,Hardee's
848,124 N C St,Bridgeton,NC,28519,Hardee's
849,420 Main St.,Bunn,NC,27508,Hardee's
850,500 US HIGHWAY 117,BURGAW,NC,28425,Hardee's
851,2349 MAPLE AVENUE,BURLINGTON,NC,27215,Hardee's
852,2124 WEST WEBB AVENUE,BURLINGTON,NC,27217,Hardee's
853,2756 ALAMANCE ROAD,BURLINGTON,NC,27215,Hardee's
854,318 W US Highway 19E BYP,Burnsville,NC,28714,Hardee's
855,100 TOWNE CENTER DRIVE,CAMDEN,NC,27921,Hardee's
856,4480 BUFFALO LAKE RD,CAMERON,NC,28326,Hardee's
857,16 New Clyde Hwy,Canton,NC,28716,Hardee's
858,254 Lake Park Blvd,Carolina Bch,NC,28428,Hardee's
859,1018 MONROE ST,CARTHAGE,NC,28327,Hardee's
860,5601 Castle Hayne Rd,Castle Hayne,NC,28429,Hardee's
861,915 North Brown Street,Chadbourn,NC,28431,Hardee's
862,6116 FARRINGTON ROAD,CHAPEL HILL,NC,27517,Hardee's
863,4201 EAST W.T.HARRIS BLVD,CHARLOTTE,NC,28215,Hardee's
864,509 Hwy 29 North,China Grove,NC,28023,Hardee's
865,US HWY 17 & FIRST STREET,CHOCOWINITY,NC,27817,Hardee's
866,3099 WEST MAIN STREET,CLAREMONT,NC,28610,Hardee's
867,12872 US 70 HWY W,CLAYTON,NC,27520,Hardee's
868,36 SPRINGBROOK AVE,CLAYTON,NC,27520,Hardee's
869,1514 Sunset Ave,Clinton,NC,28328,Hardee's
870,459 NORTH MCKINLEY,COATS,NC,27521,Hardee's
871,547 NORTH CHURCH STREET,CONCORD,NC,28025,Hardee's
872,609 Conover Boulevard W,Conover,NC,28613,Hardee's
873,2568 W LYON STATION RD,CREEDMOOR,NC,27522,Hardee's
874,6090 N HIGHWAY 16,DENVER,NC,28037,Hardee's
875,873 Long Branch Rd,Dunn,NC,28334,Hardee's
876,4607 S ALSTON AVE,DURHAM,NC,27713,Hardee's
877,3912 NORTH DUKE STREET,DURHAM,NC,27704,Hardee's
878,2721 CHAPEL HILL RD,DURHAM,NC,27707,Hardee's
879,262 W KINGS HWY,EDEN,NC,27288,Hardee's
880,1001 US HWY 17 S,ELIZABETH CITY,NC,27909,Hardee's
881,213 S. Poplar Street,Elizabethtown,NC,28337,Hardee's
882,105 SOUTH MCDANIEL STREET,ENFIELD,NC,27823,Hardee's
883,600 E Jackson Blvd,Erwin,NC,28339,Hardee's
884,3803 Morganton Road,Fayetteville,NC,28314,Hardee's
885,3405 MURCHISON ROAD,FAYETTEVILLE,NC,28311,Hardee's
886,2497 HOPE MILLS ROAD,FAYETTEVILLE,NC,28304,Hardee's
887,6397 RAMSEY ST,FAYETTEVILLE,NC,28311,Hardee's
888,360 N EASTERN BLVD,FAYETTEVILLE,NC,28301,Hardee's
889,665 S Broadway St,Forest City,NC,28043,Hardee's
890,710 E Main St,Franklin,NC,28734,Hardee's
891,3257 U.S. Highway 1,Franklinton,NC,27525,Hardee's
892,1560 NORTH BROAD STREET,FUQUAY VARINA,NC,27526,Hardee's
893,100 VANDORA SPRINGS RD,GARNER,NC,27529,Hardee's
894,2898 Cornwallis Rd,Garner,NC,27529,Hardee's
895,100 Lawrenceville Road,Gaston,NC,27832,Hardee's
896,1901 South York Road,Gastonia,NC,28052,Hardee's
897,2135 N CHESTER ST,GASTONIA,NC,28052,Hardee's
898,1109 11th St,Goldsboro,NC,27534,Hardee's
899,220 E Ash St,Goldsboro,NC,27530,Hardee's
900,6501 CARATOKE HIGHWAY 158,GRANDY,NC,27939,Hardee's
901,27 PINEWOOD RD,GRANITE FALLS,NC,28630,Hardee's
902,701 College Rd,Greensboro,NC,27410,Hardee's
903,3741 CHARLES BOULEVARD,GREENVILLE,NC,27858,Hardee's
904,701 WEST HAMLET AVE,HAMLET,NC,28345,Hardee's
905,14535 US HWY 17 SOUTH,HAMPSTEAD,NC,28443,Hardee's
906,4280 HWY 49 N,HARRISBURG,NC,28075,Hardee's
907,120 DABNEY DR,HENDERSON,NC,27536,Hardee's
908,1807 Four Seasons Blvd,Hendersonville,NC,28792,Hardee's
909,6001 Asheville Hwy,Hendersonville,NC,28791,Hardee's
910,200 Ocean Highway S.,Hertford,NC,27944,Hardee's
911,1110 LENOIR RHYNE BLVD,HICKORY,NC,28602,Hardee's
912,324 S CENTER ST,HILDEBRAN,NC,28637,Hardee's
913,380 SOUTH CHURTON STREET,HILLSBOROUGH,NC,27278,Hardee's
914,4260 LEGION ROAD,HOPE MILLS,NC,28348,Hardee's
915,14101 STATESVILLE RD,HUNTERSVILLE,NC,28078,Hardee's
916,1106 Western Blvd,Jacksonville,NC,28546,Hardee's
917,3001 Richlands Highway,Jacksonville,NC,28540,Hardee's
918,799 E MAIN ST,JEFFERSON,NC,28640,Hardee's
919,140 DALE EARNHARDT BLVD,KANNAPOLIS,NC,28081,Hardee's
920,Hwy 50 Limestone Rd,Kenansville,NC,28349,Hardee's
921,813 S Main St,Kernersville,NC,27284,Hardee's
922,509 E KING ST,KINGS MOUNTAIN,NC,28086,Hardee's
923,1344 Highway 258 S,Kinston,NC,28504,Hardee's
924,4171 W VERNON AVENUE,KINSTON,NC,28504,Hardee's
925,9760 Andrew Jackson Hwy,Laurel Hill,NC,28351,Hardee's
926,1675 S. Main St,Laurinburg,NC,28352,Hardee's
927,101 Village Rd Ne,Leland,NC,28451,Hardee's
928,670 MORGANTON BLVD,LENOIR,NC,28645,Hardee's
929,521 SALEM STREET,LEXINGTON,NC,27292,Hardee's
930,1102 S Main St,Lillington,NC,27546,Hardee's
931,1102 East Main St,Lincolnton,NC,28092,Hardee's
932,221 E MAIN ST,LITTLETON,NC,27850,Hardee's
933,110 S BRICKETT BLVD,LOUISBURG,NC,27549,Hardee's
934,716 MCADENVILLE RD,LOWELL,NC,28098,Hardee's
935,2475 N Roberts Avenue,Lumberton,NC,28358,Hardee's
936,3007 W 5TH ST,LUMBERTON,NC,28358,Hardee's
937,101 JACKSON COURT,LUMBERTON,NC,28358,Hardee's
938,604 BURTON STREET,MADISON,NC,27025,Hardee's
939,5860 STARTOWN ROAD,MAIDEN,NC,28650,Hardee's
940,1194 N Main St.,Marion,NC,28752,Hardee's
941,3240 Highway 226 S,Marion,NC,28752,Hardee's
942,642 N Patterson Street,Maxton,NC,28364,Hardee's
943,701 MAIN ST,MAYSVILLE,NC,28555,Hardee's
944,1217 Trollingwood Hawfields Rd,Mebane,NC,27302,Hardee's
945,1350 HIGHWAY 601 SOUTH,MOCKSVILLE,NC,27028,Hardee's
946,503 W ROOSEVELT BLVD,Monroe,NC,28110,Hardee's
947,863 N GREEN ST,MORGANTON,NC,28655,Hardee's
948,1205 BURKEMONT AVE,MORGANTON,NC,28655,Hardee's
949,141 PIONEER VILLAGE DR,Mountain City,NC,37683,Hardee's
950,2154 ROCKFORD STREET,MOUNT AIRY,NC,27030,Hardee's
951,1221 WEST PINE STREET,MOUNT AIRY,NC,27030,Hardee's
952,205 W. NC HIGHWAY 55,MOUNT OLIVE,NC,28365,Hardee's
953,8440 Highway 49 N,Mount Pleasant,NC,28124,Hardee's
954,410 CARATOKE HWY,MOYOCK,NC,27958,Hardee's
955,361 W WASHINGTON ST,NASHVILLE,NC,27856,Hardee's
956,570 Pineola ST,Newland,NC,28657,Hardee's
957,1760 Southfork Drive,Newton,NC,28658,Hardee's
958,105 W Weeksdale Dr,Newton Grove,NC,28366,Hardee's
959,3678 Maco Road,Northwest,NC,28451,Hardee's
960,1651 SEASIDE ROAD SW,OCEAN ISLE BEACH,NC,28469,Hardee's
961,307 S Catawba Ave,Old Fort,NC,28762,Hardee's
962,620 LEWIS STREET,OXFORD,NC,27565,Hardee's
963,317 W 3rd Street,Pembroke,NC,28372,Hardee's
964,5040 Hwy 117 N,Pikeville,NC,27863,Hardee's
965,200 WEST MAIN STREET,PILOT MOUNTAIN,NC,27041,Hardee's
966,28 EAST ST,PITTSBORO,NC,27312,Hardee's
967,101 SMITH STREET,PRINCETON,NC,27569,Hardee's
968,112 Fayetteville Road,Raeford,NC,28376,Hardee's
969,2304 Gorman St,Raleigh,NC,27606,Hardee's
970,5601 Creedmoor Rd,Raleigh,NC,27612,Hardee's
971,5639 Hillsborough St,Raleigh,NC,27606,Hardee's
972,704 W Academy St,Randleman,NC,27317,Hardee's
973,610 E 4Th Ave,Red Springs,NC,28377,Hardee's
974,1702 FREEWAY DRIVE,REIDSVILLE,NC,27320,Hardee's
975,8901 Richlands Highway 24,Richlands,NC,28574,Hardee's
976,1711 JULIAN R ALLSBROOK HWY,ROANOKE RAPIDS,NC,27870,Hardee's
977,120 EAST 10TH ST,ROANOKE RAPIDS,NC,27870,Hardee's
978,481 US Highway 1 S,Rockingham,NC,28379,Hardee's
979,507 W MAIN ST,ROCKWELL,NC,28138,Hardee's
980,1200 E RALEIGH BLVD,Rocky Mount,NC,27801,Hardee's
981,886 W RALEIGH BLVD,ROCKY MOUNT,NC,27803,Hardee's
982,600 N WESLEYAN BLVD,ROCKY MOUNT,NC,27804,Hardee's
983,3525 SUNSET AVE,ROCKY MOUNT,NC,27804,Hardee's
984,1831 N WESLEYAN BLVD,ROCKY MOUNT,NC,27804,Hardee's
985,4891 SUNSET AVENUE,ROCKY MOUNT,NC,27804,Hardee's
986,8081 Us Highway 117 S,Rocky Point,NC,28457,Hardee's
987,403 SOUTH MAIN STREET,ROLESVILLE,NC,27571,Hardee's
988,205 Hwy 24,Roseboro,NC,28382,Hardee's
989,303 N Madison Boulevard,Roxboro,NC,27573,Hardee's
990,116 College Ave,Rutherfordton,NC,28139,Hardee's
991,507 W Broad St,Saint Pauls,NC,28384,Hardee's
992,726 E INNES ST,SALISBURY,NC,28144,Hardee's
993,3002 S HORNER BLVD,SANFORD,NC,27332,Hardee's
994,2255 Jefferson Davis Hwy,Sanford,NC,27330,Hardee's
995,5184 NC 87 N,SANFORD,NC,27332,Hardee's
996,608 South Main Street,Scotland Neck,NC,27874,Hardee's
997,434 Little River Rd,Seagrove,NC,27341,Hardee's
998,437 US HWY 70,SELMA,NC,27576,Hardee's
999,4414 Main Street,Shallotte,NC,28470,Hardee's
1000,3651 N Hathaway Blvd,Sharpsburg,NC,27878,Hardee's
1001,324 E GROVER ST,SHELBY,NC,28150,Hardee's
1002,7946 VILLAGE CENTER NORTH,SHERRILLS FORD,NC,28673,Hardee's
1003,1262 N BRIGHTLEAF BLVD,SMITHFIELD,NC,27577,Hardee's
1004,968 NC HWY 210,SNEADS FERRY,NC,28460,Hardee's
1005,417 S Main ST,Sparta,NC,28675,Hardee's
1006,441 Highway 27 S,Stanley,NC,28164,Hardee's
1007,255 N CENTER ST,STATESVILLE,NC,28677,Hardee's
1008,1205 E GARNER BAGNAL BLVD,STATESVILLE,NC,28677,Hardee's
1009,5189 CLINTON RD,STEDMAN,NC,28391,Hardee's
1010,5 Ocean Hwy E,Supply,NC,28462,Hardee's
1011,2791 Ocean View Ave S.W.,Supply,NC,28462,Hardee's
1012,418 ROLAND AVENUE,SURF CITY,NC,28445,Hardee's
1013,677 W CORBETT AVE,SWANSBORO,NC,28584,Hardee's
1014,101B WB MCLEAN BLVD,SWANSBORO,NC,28584,Hardee's
1015,475 E. Main St,SYLVA,NC,28779,Hardee's
1016,700 Western Blvd,Tarboro,NC,27886,Hardee's
1017,14622 Nc Hwy 87 West,Tar Heel,NC,28392,Hardee's
1018,1025 RANDOLPH STREET,THOMASVILLE,NC,27360,Hardee's
1019,3002 Old Hollow Rd,Walkertown,NC,27051,Hardee's
1020,807 N Norwood St,Wallace,NC,28466,Hardee's
1021,1074 N Main St,Walnut Cove,NC,27052,Hardee's
1022,417 W RIDGEWAY ST,WARRENTON,NC,27589,Hardee's
1023,1290 JOHN SMALL AVE,WASHINGTON,NC,27889,Hardee's
1024,2427 W 5Th St,Washington,NC,27889,Hardee's
1025,2010 S. Main St,Waynesville,NC,28786,Hardee's
1026,65 weaver blvd,Weaverville,NC,28787,Hardee's
1027,2888 WENDELL BOULEVARD,WENDELL,NC,27591,Hardee's
1028,265 Washington Street,Whiteville,NC,28472,Hardee's
1029,1901 Addison Ave,Wilkesboro,NC,28697,Hardee's
1030,1585 WASHINGTON ST,WILLIAMSTON,NC,27892,Hardee's
1031,2518 Carolina Beach Rd,Wilmington,NC,28401,Hardee's
1032,1420 Floral Pkwy,Wilmington,NC,28403,Hardee's
1033,1970 S 17Th St,Wilmington,NC,28401,Hardee's
1034,1900 Castle Hayne Rd,Wilmington,NC,28401,Hardee's
1035,2313 Forest Hills Road,Wilson,NC,27893,Hardee's
1036,2837 US HIGHWAY 301 SOUTH,WILSON,NC,27893,Hardee's
1037,10 E Clemmonsville Rd,Winston Salem,NC,27127,Hardee's
1038,1590 First St,Winston Salem,NC,27104,Hardee's
1039,3351 Sides Branch Rd,Winston Salem,NC,27127,Hardee's
1040,952 S State St,Yadkinville,NC,27055,Hardee's
1041,2089 NC HIGHWAY 86 N,YANCEYVILLE,NC,27379,Hardee's
1042,607 W GANNON ST,ZEBULON,NC,27597,Hardee's
1043,1301 Capital Ave,Bismarck,ND,58501,Hardee's
1044,515 Highway 2 E,Devils Lake,ND,58301,Hardee's
1045,233 W Villard St,Dickinson,ND,58601,Hardee's
1046,3819 Main Ave,Fargo,ND,58103,Hardee's
1047,3072 45Th St,Fargo,ND,58104,Hardee's
1048,1213 47Th Street,Grand Forks,ND,58201,Hardee's
1049,901 1St Ave S,Jamestown,ND,58401,Hardee's
1050,2205 N Broadway,Minot,ND,58703,Hardee's
1051,2000 S Broadway,Minot,ND,58701,Hardee's
1052,104 9Th Ave Se,Watford City,ND,58854,Hardee's
1053,1450 13Th Ave,West Fargo,ND,58078,Hardee's
1054,1020 2Nd Ave W,Williston,ND,58801,Hardee's
1055,811 N 205 St,Elkhorn,NE,68022,Hardee's
1056,3350 Elk Ln,Fremont,NE,68025,Hardee's
1057,1300 W Monroe Avenue,Norfolk,NE,68701,Hardee's
1058,102 Holiday Frontage Road,North Platte,NE,69101,Hardee's
1059,9407 S 145Th St,Omaha,NE,68138,Hardee's
1060,3225 L St,Omaha,NE,68107,Hardee's
1061,12424 L St,Omaha,NE,68137,Hardee's
1062,2405 Dakota Ave,South Sioux City,NE,68776,Hardee's
1063,188 North 30 Rd,Syracuse,NE,68446,Hardee's
1064,6201 Shortman Road,Ripley,NY,14755,Hardee's
1065,2695 Gilchrist Rd,Akron,OH,44305,Hardee's
1066,1395 S Arlington St,Akron,OH,46305,Hardee's
1067,4010 Colonel Glenn Hwy,Beaver Creek,OH,45431,Hardee's
1068,2001 State Route 540,Bellefontaine,OH,43311,Hardee's
1069,1801 Washington Street,Belpre,OH,45714,Hardee's
1070,2008 State Route 850,Bidwell,OH,45614,Hardee's
1071,801 Arlington Road,Brookville,OH,45309,Hardee's
1072,536 S Sandusky Street,Bucyrus,OH,44820,Hardee's
1073,10145 Avon Lake Rd,Burbank,OH,44214,Hardee's
1074,300 W Main St,Circleville,OH,43113,Hardee's
1075,1559 Us Hwy 20,Clyde,OH,43410,Hardee's
1076,3417 N. High St,Columbus,OH,43214,Hardee's
1077,3444 South High Street,Columbus,OH,43207,Hardee's
1078,325 S 2nd St,Coshocton,OH,43812,Hardee's
1079,2500 Needmore Rd,Dayton,OH,45414,Hardee's
1080,2217  S Edwin C Moses Blvd,Dayton,OH,45417,Hardee's
1081,9901 Schuster Way,Etna,OH,43018,Hardee's
1082,6164 County Rd 165,Genoa,OH,43430,Hardee's
1083,6410 County Rd 165,Genoa,OH,43430,Hardee's
1084,699 Wagner Ave,Greenville,OH,45331,Hardee's
1085,7508 Brandt Pike,Huber Heights,OH,45424,Hardee's
1086,65 S Chestnut St,Jefferson,OH,44047,Hardee's
1087,13023 Us Highway 35 Nw,Jeffersonville,OH,43128,Hardee's
1088,Hwy 33 & Lancaster-Circleville Rd,Lancaster,OH,43130,Hardee's
1089,8209 Springboro Pike,Miamisburg,OH,45342,Hardee's
1090,500 South Breiel Blvd,Middletown,OH,45044,Hardee's
1091,709 E Lincoln Way,Minerva,OH,44657,Hardee's
1092,2333 E High St,New Philadelphia,OH,44663,Hardee's
1093,4898 Shuffel St. Nw,North Canton,OH,44720,Hardee's
1094,6023 Alum Creek Dr,Obetz,OH,43207,Hardee's
1095,1286 East Ash St,Piqua,OH,45356,Hardee's
1096,6134 State Hwy 14,Ravenna,OH,44266,Hardee's
1097,8750 Wooster Pike,Seville,OH,44273,Hardee's
1098,2241 Fair Road,Sidney,OH,45365,Hardee's
1099,782 S Wooster Avenue,Strasburg,OH,44680,Hardee's
1100,1301 N Warpole St,Upper Sandusky,OH,43351,Hardee's
1101,36900 Vine St,Willoughby,OH,44094,Hardee's
1102,2102 E CHEROKEE AVE,SALLISAW,OK,74955,Hardee's
1103,1804 West Trindle Road,Carlisle,PA,17013,Hardee's
1104,625 Lincoln Way East,Chambersburg,PA,17201,Hardee's
1105,820 East Main Street,Dallastown,PA,17313,Hardee's
1106,724 Allegheny St,Dauphin,PA,17018,Hardee's
1107,30 S Antrim Way,Greencastle,PA,17225,Hardee's
1108,2203 Paxton St,Harrisburg,PA,17111,Hardee's
1109,646 Main Street,Mcsherrystown,PA,17344,Hardee's
1110,230 Nissley St,Middletown,PA,17057,Hardee's
1111,1201 NORTH AVE,MILLVALE,PA,15209,Hardee's
1112,198 W Lincoln Avenue,Myerstown,PA,17067,Hardee's
1113,500 North Main Street,Spring Grove,PA,17362,Hardee's
1114,1527 East Main Street,Waynesboro,PA,17268,Hardee's
1115,124 E Roy Furman Hwy,Waynesburg,PA,15370,Hardee's
1116,2020 West Market Street,York,PA,17404,Hardee's
1117,1617 North George Street,York,PA,17404,Hardee's
1118,100 W. Greenwood St,Abbeville,SC,29620,Hardee's
1119,2648 COLUMBIA HIGHWAY N,AIKEN,SC,29805,Hardee's
1120,1733 WHISKEY RD,AIKEN,SC,29803,Hardee's
1121,601 Railroad Avenue,Allendale,SC,29810,Hardee's
1122,4415 Clemson Blvd,Anderson,SC,29621,Hardee's
1123,102 Hwy 28 Bypass,Anderson,SC,29624,Hardee's
1124,100 Fritz Dr,Anderson,SC,29621,Hardee's
1125,I-85 Exit 32,Anderson,SC,29669,Hardee's
1126,2784 Highway 501 E,Aynor,SC,29511,Hardee's
1127,2999 Main Highway,Bamberg,SC,29003,Hardee's
1128,10262 Dunbarton Blvd,Barnwell,SC,29812,Hardee's
1129,143 East Church Street,Batesburg-Leesville,SC,29070,Hardee's
1130,408 S Main St,Belton,SC,29627,Hardee's
1131,216 S Main St,Bishopville,SC,29010,Hardee's
1132,914 N Mountain St,Blacksburg,SC,29702,Hardee's
1133,100 Creech Rd,Blythewood,SC,29016,Hardee's
1134,3112 Boiling Springs Rd,Boiling Springs,SC,29316,Hardee's
1135,1924 West Main Street,Central,SC,29630,Hardee's
1136,1425 Chapin Road,Chapin,SC,29036,Hardee's
1137,2109 Savannah Hwy,Charleston,SC,29414,Hardee's
1138,801 MARKET ST,CHERAW,SC,29520,Hardee's
1139,710 South Alabama Street,Chesnee,SC,29323,Hardee's
1140,1791 J A COCHRAN BYP,CHESTER,SC,29706,Hardee's
1141,4445 JEFFERSON DAVIS HWY,CLEARWATER,SC,29822,Hardee's
1142,12328 Highway 56 N,Clinton,SC,29325,Hardee's
1143,206 S MAIN ST,CLOVER,SC,29710,Hardee's
1144,120 Veterans Rd,Columbia,SC,29209,Hardee's
1145,496 Piney Grove Rd,Columbia,SC,29210,Hardee's
1146,3852 Rosewood Dr,Columbia,SC,29205,Hardee's
1147,7942 Garners Ferry Rd,Columbia,SC,29209,Hardee's
1148,5801 Fairfield Road,Columbia,SC,29203,Hardee's
1149,1506 Church St,Conway,SC,29526,Hardee's
1150,5420 N Main St,Cowpens,SC,29330,Hardee's
1151,217 S MAIN ST,DARLINGTON,SC,29532,Hardee's
1152,508 E Baruch St,Denmark,SC,29042,Hardee's
1153,301 N 2Nd St,Dillon,SC,29536,Hardee's
1154,1397 E Main St,Duncan,SC,29334,Hardee's
1155,5279 Calhoun Memorial Hwy,Easley,SC,29640,Hardee's
1156,421 W Main St,Easley,SC,29640,Hardee's
1157,3883 Cross Anchor Road,Enoree,SC,29335,Hardee's
1158,1606 S IRBY ST,Florence,SC,29505,Hardee's
1159,2302 W LUCAS ST,FLORENCE,SC,29501,Hardee's
1160,6448 E Old Marion Hwy,Florence,SC,29506,Hardee's
1161,875 Gold Hill Rd,Fort Mill,SC,29708,Hardee's
1162,100 Chevy Drive,Fountain Inn,SC,29644,Hardee's
1163,100 South Granard St,Gaffney,SC,29341,Hardee's
1164,1311 Church St,Georgetown,SC,29440,Hardee's
1165,201 N Goose Creek Blvd,Goose Creek,SC,29445,Hardee's
1166,2306 W Parker Rd,Greenville,SC,29617,Hardee's
1167,6133 Augusta Road,Greenville,SC,29605,Hardee's
1168,451 Mills Ave,Greenville,SC,29605,Hardee's
1169,201 Rutherford Street,Greenville,SC,29609,Hardee's
1170,1213 Woodruff Rd,Greenville,SC,29607,Hardee's
1171,3 Pelham Rd,Greenville,SC,29615,Hardee's
1172,630 BYPASS 25 NE,GREENWOOD,SC,29646,Hardee's
1173,102 COMMONS DR,GREENWOOD,SC,29649,Hardee's
1174,14520 E Wade Hampton Blvd,Greer,SC,29651,Hardee's
1175,1005 Elm St W,Hampton,SC,29924,Hardee's
1176,909 S FIFTH ST,HARTSVILLE,SC,29550,Hardee's
1177,301 S Main St,Hemingway,SC,29554,Hardee's
1178,8545 Old State Road,Holly Hill,SC,29059,Hardee's
1179,303 E Greer St,Honea Path,SC,29654,Hardee's
1180,11960 Asheville Hwy,Inman,SC,29349,Hardee's
1181,215 W Main St,Kingstree,SC,29556,Hardee's
1182,115 S Ron Mcnair Blvd,Lake City,SC,29560,Hardee's
1183,297 LANCASTER BYP E,LANCASTER,SC,29720,Hardee's
1184,1910 S Lake Dr,Lexington,SC,29073,Hardee's
1185,1105 W Main St,Lexington,SC,29072,Hardee's
1186,7253 Moorefield Memorial Hwy,Liberty,SC,29657,Hardee's
1187,4206 E MAIN STREET,LORIS,SC,29569,Hardee's
1188,486 Us Highway 601 South,Lugoff,SC,29078,Hardee's
1189,12209 Greenville Hwy 29,Lyman,SC,29365,Hardee's
1190,102 Sunset Drive,Manning,SC,29102,Hardee's
1191,115 Main St South,Mauldin,SC,29662,Hardee's
1192,101 S MINE ST,MC CORMICK,SC,29835,Hardee's
1193,422 N Highway 52,Moncks Corner,SC,29461,Hardee's
1194,2680 E Highway 76,Mullins,SC,29574,Hardee's
1195,402 S Kings Hwy,Myrtle Beach,SC,29577,Hardee's
1196,6000 N Kings Hwy,Myrtle Beach,SC,29577,Hardee's
1197,1242 Wilson Rd,Newberry,SC,29108,Hardee's
1198,130 Main St E,Ninety Six,SC,29666,Hardee's
1199,313 EDGEFIELD RD,NORTH AUGUSTA,SC,29841,Hardee's
1200,5201 Ashley Phosphate Rd,North Charleston,SC,29418,Hardee's
1201,3694 St Matthews Road,Orangeburg,SC,29118,Hardee's
1202,1109 John C Calhoun Dr,Orangeburg,SC,29115,Hardee's
1203,890 Five Chop Road,Orangeburg,SC,29115,Hardee's
1204,6911 S Pine St,Pacolet,SC,29372,Hardee's
1205,2210 Highway 601n,Pageland,SC,29728,Hardee's
1206,308 Hampton Avenue,Pickens,SC,29671,Hardee's
1207,904 Anderson St,Piedmont,SC,29673,Hardee's
1208,1450 Ribaut Rd,Port Royal,SC,29935,Hardee's
1209,6320 Savannah Hwy,Ravenel,SC,29470,Hardee's
1210,188 S HERLONG AVE,ROCK HILL,SC,29732,Hardee's
1211,2165 MANA COURT,ROCK HILL,SC,29730,Hardee's
1212,2499 Blackstock Road,Roebuck,SC,29376,Hardee's
1213,6002 W Jim Bilton Blvd,Saint George,SC,29477,Hardee's
1214,401 S HARRY C RAYSOR DR,SAINT MATTHEWS,SC,29135,Hardee's
1215,1003 By Pass 123,Seneca,SC,29678,Hardee's
1216,1008 Ne Main Street,Simpsonville,SC,29681,Hardee's
1217,1806 East Main Street,Spartanburg,SC,29307,Hardee's
1218,2190 Chesnee Hwy,Spartanburg,SC,29303,Hardee's
1219,2451 Reidville Road,Spartanburg,SC,29301,Hardee's
1220,214 Cedar Springs Rd,Spartanburg,SC,29302,Hardee's
1221,10005 Dorchester Rd,Summerville,SC,29485,Hardee's
1222,1402 N Main St.,Summerville,SC,29483,Hardee's
1223,2187 N Main St.,Summerville,SC,29483,Hardee's
1224,493 N GUIGNARD DR,SUMTER,SC,29150,Hardee's
1225,10 Hwy 17 N,Surfside Beach,SC,29575,Hardee's
1226,105 N Church St,Swansea,SC,29160,Hardee's
1227,3203 Wade Hampton Blvd,Taylors,SC,29687,Hardee's
1228,315 East Smith Street,Timmonsville,SC,29161,Hardee's
1229,6501 State Park Road,Travelers Rest,SC,29690,Hardee's
1230,733 N Duncan Byp,Union,SC,29379,Hardee's
1231,3901 Blue Ridge Blvd,Walhalla,SC,29691,Hardee's
1232,503 N Jefferies Blvd,Walterboro,SC,29488,Hardee's
1233,2499 Augusta Rd,West Columbia,SC,29169,Hardee's
1234,3014 Charleston Hwy,West Columbia,SC,29172,Hardee's
1235,904 E Main St,Westminster,SC,29693,Hardee's
1236,1520 Anderson Drive,Williamston,SC,29697,Hardee's
1237,12733 Main St,Williston,SC,29853,Hardee's
1238,409 Yemassee Hwy,Yemassee,SC,29945,Hardee's
1239,1125 FILBERT HIGHWAY,YORK,SC,29745,Hardee's
1240,2504 Fifth Ave,Belle Fourche,SD,57717,Hardee's
1241,679 Reagan Ave,Box Elder,SD,57719,Hardee's
1242,2324 6Th St,Brookings,SD,57006,Hardee's
1243,1201 E Highway 12,Milbank,SD,57252,Hardee's
1244,1025 Cabela Dr,Mitchell,SD,57301,Hardee's
1245,305 W Sioux Ave,Pierre,SD,57501,Hardee's
1246,2250 N Haines Ave,Rapid City,SD,57701,Hardee's
1247,604 5Th St,Rapid City,SD,57701,Hardee's
1248,1204 E. North Street,Rapid City,SD,57701,Hardee's
1249,1010 E 10Th St,Sioux Falls,SD,57103,Hardee's
1250,4801 W 12Th St,Sioux Falls,SD,57106,Hardee's
1251,2900 S Minnesota Ave,Sioux Falls,SD,57105,Hardee's
1252,937 5Th St Se,Watertown,SD,57201,Hardee's
1253,110 Haywood Ln,Antioch,TN,37013,Hardee's
1254,26094 Main St,Ardmore,TN,38449,Hardee's
1255,420 S Main St,Ashland City,TN,37015,Hardee's
1256,1219 Congress Pkwy S,Athens,TN,37303,Hardee's
1257,104 S White St,Athens,TN,37303,Hardee's
1258,7102 Highway 70 S,Bellevue,TN,37221,Hardee's
1259,3283 Hwy 126,Blountville,TN,37617,Hardee's
1260,1313 Volunteer Parkway,Bristol,TN,37620,Hardee's
1261,5119 Hwy 11 S,Calhoun,TN,37309,Hardee's
1262,84 Dixon Springs Hwy,Carthage,TN,37030,Hardee's
1263,1651 Lauderdale Memorial Hwy,Charleston,TN,37310,Hardee's
1264,220 Browns Ferry Rd,Chattanooga,TN,37419,Hardee's
1265,6013 Shallowford Road,Chattanooga,TN,37421,Hardee's
1266,4007 Mccahill Road,Chattanooga,TN,37415,Hardee's
1267,4831 Hwy 58,Chattanooga,TN,37416,Hardee's
1268,6305 Ringgold Road,Chattanooga,TN,37412,Hardee's
1269,1580 Fort Campbell Blvd,Clarksville,TN,37042,Hardee's
1270,1941 Madison Street,Clarksville,TN,37043,Hardee's
1271,1480 Tiny Town Rd,Clarksville,TN,37042,Hardee's
1272,110 Bernham Dr N W,Cleveland,TN,37312,Hardee's
1273,2005 Spring Place Road,Cleveland,TN,37323,Hardee's
1274,2410 Blue Springs Rd Se,Cleveland,TN,37311,Hardee's
1275,1651 25th Street Nw,Cleveland,TN,37311,Hardee's
1276,210 Clinch Ave,Clinton,TN,37716,Hardee's
1277,107 Buffalo Rd,Clinton,TN,37716,Hardee's
1278,4256 Fort Henry Drive,Colonial Heights,TN,37663,Hardee's
1279,113 Bear Creek Pike,Columbia,TN,38401,Hardee's
1280,1117 Hampshire Pike,Columbia,TN,38401,Hardee's
1281,230 South Jefferson,Cookeville,TN,38501,Hardee's
1282,1075 Willow Ave,Cookeville,TN,38501,Hardee's
1283,1750 Salem Rd,Cookeville,TN,38506,Hardee's
1284,5088 Highway 64,Copperhill,TN,37317,Hardee's
1285,30 Highland Square,Crossville,TN,38555,Hardee's
1286,561 Peavine Road,Crossville,TN,38571,Hardee's
1287,509 Patriot Dr,Dandridge,TN,37725,Hardee's
1288,7474 Rhea County Hwy,Dayton,TN,37321,Hardee's
1289,17659 State Highway 58 N,Decatur,TN,37322,Hardee's
1290,100 Suzanne Dr,Dickson,TN,37055,Hardee's
1291,17068 Rankin Avenue,Dunlap,TN,37327,Hardee's
1292,107 E Broad St,Elizabethton,TN,37643,Hardee's
1293,North Main St Rt 1  Box 1237,Erwin,TN,37650,Hardee's
1294,859 Highway 411 North,Etowah,TN,37331,Hardee's
1295,7003 City Center Way,Fairview,TN,37062,Hardee's
1296,1116 Huntsville Hwy,Fayetteville,TN,37334,Hardee's
1297,1315 Murfreesboro Rd,Franklin,TN,37064,Hardee's
1298,452 E Main Street,Gallatin,TN,37066,Hardee's
1299,400 S Cartwright,Goodlettsville,TN,37072,Hardee's
1300,633 Asheville Highway,Greeneville,TN,37743,Hardee's
1301,2676 E Andrew Johnson Hwy,Greeneville,TN,37745,Hardee's
1302,1608 S Roane St,Harriman,TN,37748,Hardee's
1303,6680 Cumberland Gap Pkwy,Harrogate,TN,37752,Hardee's
1304,5775 Old Hickory Blvd,Hermitage,TN,37076,Hardee's
1305,1165 Aedc Road,Hillsboro,TN,37342,Hardee's
1306,348 E MAIN ST,HOHENWALD,TN,38462,Hardee's
1307,2050 Highway 70 East,Jackson,TN,38305,Hardee's
1308,1210 Hwy 28,Jasper,TN,37347,Hardee's
1309,546 E Broadway Blvd.,Jefferson City,TN,37760,Hardee's
1310,2702 North Roan Street,Johnson City,TN,37601,Hardee's
1311,2102 West Market St,Johnson City,TN,37604,Hardee's
1312,4707 N Roan St,Johnson City,TN,37615,Hardee's
1313,395 East Jackson Blvd,Jonesborough,TN,37659,Hardee's
1314,1405 E Stone Dr,Kingsport,TN,37660,Hardee's
1315,1401 John B Dennis Pkway,Kingsport,TN,37660,Hardee's
1316,935 N Kentucky St,Kingston,TN,37763,Hardee's
1317,2919 Tazewell Pike,Knoxville,TN,37918,Hardee's
1318,7437 Maynardville Pike,Knoxville,TN,37938,Hardee's
1319,3718 Western Ave,Knoxville,TN,37921,Hardee's
1320,609 Campbell Station Rd,Knoxville,TN,37934,Hardee's
1321,6760 Clinton Hwy,Knoxville,TN,37912,Hardee's
1322,150 N Cedar Bluff Road,Knoxville,TN,37923,Hardee's
1323,417 Highway 52 Byp W,Lafayette,TN,37083,Hardee's
1324,2436 Jacksboro Pike,La Follette,TN,37766,Hardee's
1325,508 Waldron Road,La Vergne,TN,37086,Hardee's
1326,1411 North Locust,Lawrenceburg,TN,38464,Hardee's
1327,1039 W Main St,Lebanon,TN,37087,Hardee's
1328,701 S Cumberland,Lebanon,TN,37087,Hardee's
1329,541 Hwy 321 N,Lenoir City,TN,37771,Hardee's
1330,901 W Main St,Livingston,TN,38570,Hardee's
1331,102 S Military St,Loretto,TN,38469,Hardee's
1332,4750 New Highway 68,Madisonville,TN,37354,Hardee's
1333,913 Hillsboro Hwy,Manchester,TN,37355,Hardee's
1334,2105 E Broadway,Maryville,TN,37804,Hardee's
1335,1516 E Lamar Alexander Pkwy,Maryville,TN,37804,Hardee's
1336,2601 Us Highway 411 S,Maryville,TN,37801,Hardee's
1337,1575 Robert C Jackson Dr,Maryville,TN,37801,Hardee's
1338,2825 Maynardville Hwy,Maynardville,TN,37807,Hardee's
1339,407 W Main St,Mc Minnville,TN,37110,Hardee's
1340,4628 SUMMER AVE,MEMPHIS,TN,38122,Hardee's
1341,2005 WHITTEN ROAD,MEMPHIS,TN,38133,Hardee's
1342,8523 N US HWY 51,MILLINGTON,TN,38053,Hardee's
1343,716 Parker St,Monteagle,TN,37356,Hardee's
1344,902 S Holly St,Monterey,TN,38574,Hardee's
1345,2345 E Morris Blvd,Morristown,TN,37813,Hardee's
1346,106 Thoroughbred Run Rd,Morristown,TN,37813,Hardee's
1347,530 W Main Street,Mount Carmel,TN,37645,Hardee's
1348,101 Lineberry Blvd,Mount Juliet,TN,37122,Hardee's
1349,150 Couchville Industrial Pike,Mount Juliet,TN,37122,Hardee's
1350,1685 Middle Tennessee Blvd,Murfreesboro,TN,37130,Hardee's
1351,912 N W Broad Street,Murfreesboro,TN,37129,Hardee's
1352,1851 Memorial Blvd,Murfreesboro,TN,37129,Hardee's
1353,2382 Old Fort Parkway,Murfreesboro,TN,37128,Hardee's
1354,2983 S Church St,Murfreesboro,TN,37127,Hardee's
1355,4099 Nolensville Road,Nashville,TN,37211,Hardee's
1356,1000 Acorn Drive,Nashville,TN,37210,Hardee's
1357,2536 Murfreesboro Pike,Nashville,TN,37217,Hardee's
1358,816 Cosby Hwy,Newport,TN,37821,Hardee's
1359,4083 Highway 411,Ocoee,TN,37361,Hardee's
1360,1436 Robinson Road,Old Hickory,TN,37138,Hardee's
1361,528 E Tri County Blvd,Oliver Springs,TN,37840,Hardee's
1362,19585 Alberta St,Oneida,TN,37841,Hardee's
1363,9201 Lee Highway,Ooltewah,TN,37363,Hardee's
1364,1005 Mineral Wells Ave,Paris,TN,38242,Hardee's
1365,148 Tennessee Ave North,Parsons,TN,38363,Hardee's
1366,3046 Parkway,Pigeon Forge,TN,37863,Hardee's
1367,5680 Hwy 11 East,Piney Flats,TN,37686,Hardee's
1368,142 Comfort Lane,Pioneer,TN,37847,Hardee's
1369,6503 Highway 41-A,Pleasant View,TN,37146,Hardee's
1370,411 S Broadway St,Portland,TN,37148,Hardee's
1371,985 E College St,Pulaski,TN,38478,Hardee's
1372,504 N Gateway,Rockwood,TN,37854,Hardee's
1373,198 Park Blvd,Rogersville,TN,37857,Hardee's
1374,7685 Rutledge Pike,Rutledge,TN,37861,Hardee's
1375,180 MAIN STREET,SAVANNAH,TN,38372,Hardee's
1376,619 MULBERRY AVE,SELMER,TN,38375,Hardee's
1377,334 West Main Street,Sevierville,TN,37862,Hardee's
1378,1260 Parkway (Us441),Sevierville,TN,37862,Hardee's
1379,310 Madison St,Shelbyville,TN,37160,Hardee's
1380,135 W Broad St,Smithville,TN,37166,Hardee's
1381,255 S Lowry St,Smyrna,TN,37167,Hardee's
1382,Highway 33 & Harrison St,Sneedville,TN,37869,Hardee's
1383,9398 Reco Dr,Soddy Daisy,TN,37379,Hardee's
1384,270 W Bockman Way,Sparta,TN,38583,Hardee's
1385,177 Front Street,Spring City,TN,37381,Hardee's
1386,2002 Memorial Blvd,Springfield,TN,37172,Hardee's
1387,4907 Main St,Spring Hill,TN,37174,Hardee's
1388,730 New Hwy 68,Sweetwater,TN,37874,Hardee's
1389,Us Highway 33 & Irish Cemetary Road,Tazewell,TN,37879,Hardee's
1390,127 Bank St,Tellico Plains,TN,37385,Hardee's
1391,2060 Us 45 Bypass South,Trenton,TN,38382,Hardee's
1392,335 W Lincoln St,Tullahoma,TN,37388,Hardee's
1393,1907 N Jackson Street,Tullahoma,TN,37388,Hardee's
1394,1200 W Reelfoot Ave,Union City,TN,38261,Hardee's
1395,1001 Highway 411,Vonore,TN,37885,Hardee's
1396,1122 N Knoxville Hwy,Wartburg,TN,37887,Hardee's
1397,5213 Highway 31 E,Westmoreland,TN,37186,Hardee's
1398,501 Hester Drive,White House,TN,37188,Hardee's
1399,12075 Valley View Hwy,Whitwell,TN,37397,Hardee's
1400,1600 Dinah Shore Blvd,Winchester,TN,37398,Hardee's
1401,806 W Main St,Woodbury,TN,37190,Hardee's
1402,602 Cummings St.,Abingdon,VA,24210,Hardee's
1403,1022 Main St,Altavista,VA,24517,Hardee's
1404,10151 SUPERIOR WAY,AMELIA COURT HOUSE,VA,23002,Hardee's
1405,114 AMBRIAR PLAZA,AMHERST,VA,24521,Hardee's
1406,7551 Richmond Hwy,Appomattox,VA,24522,Hardee's
1407,106 N Washington Hwy,Ashland,VA,23005,Hardee's
1408,505 E MAIN ST,BEDFORD,VA,24523,Hardee's
1409,711 WOOD AVE E,BIG STONE GAP,VA,24219,Hardee's
1410,904 PRICES FORK ROAD,BLACKSBURG,VA,24060,Hardee's
1411,101 NORTH MAIN STREET,BLACKSTONE,VA,23824,Hardee's
1412,701 S College Ave,Bluefield,VA,24605,Hardee's
1413,1820 Euclid Avenue,Bristol,VA,24201,Hardee's
1414,1950 Lee Hwy,Bristol,VA,24201,Hardee's
1415,2801 Beech Avenue,Buena Vista,VA,24416,Hardee's
1416,22031 LANKFORD HIGHWAY,CAPE CHARLES,VA,23310,Hardee's
1417,131 CEDAR HILL LANE,CEDAR BLUFF,VA,24609,Hardee's
1418,230 East Second Street,Chase City,VA,23924,Hardee's
1419,13689 US HIGHWAY 29,CHATHAM,VA,24531,Hardee's
1420,864 N. George Washington Hwy,Chesapeake,VA,23323,Hardee's
1421,1433 George Washington,Chesapeake,VA,23323,Hardee's
1422,1506 MOUNT PLEASANT ROAD,CHESAPEAKE,VA,23322,Hardee's
1423,1240 CEDAR ROAD,CHESAPEAKE,VA,23322,Hardee's
1424,4006 BAINBRIDGE BLVD,CHESAPEAKE,VA,23324,Hardee's
1425,1029 BATTLEFIELD BLVD NORTH,CHESAPEAKE,VA,23320,Hardee's
1426,109 S GEORGE WASHINGTON,CHESAPEAKE,VA,23323,Hardee's
1427,1901 West Hundred Road,Chester,VA,23836,Hardee's
1428,506 WHITETOP RD,CHILHOWIE,VA,24319,Hardee's
1429,2347 ROANOKE STREET,CHRISTIANSBURG,VA,24073,Hardee's
1430,103 ROANOKE ST,CHRISTIANSBURG,VA,24073,Hardee's
1431,2880 MARKET STREET,CHRISTIANSBURG,VA,24073,Hardee's
1432,916 VIRGINIA AVE,CLARKSVILLE,VA,23927,Hardee's
1433,502 W RIDGEWAY ST,CLIFTON FORGE,VA,24422,Hardee's
1434,5012 Dickenson Hwy,Clintwood,VA,24228,Hardee's
1435,Highway 58 A,Coeburn,VA,24230,Hardee's
1436,2927 VIRGINIA AVE,COLLINSVILLE,VA,24078,Hardee's
1437,1850 BOULEVARD,COLONIAL HEIGHTS,VA,23834,Hardee's
1438,801 TEMPLE AVENUE,COLONIAL HEIGHTS,VA,23834,Hardee's
1439,28384 Southampton Pkwy,Courtland,VA,23837,Hardee's
1440,1122 S ALLEGHANY AVENUE,COVINGTON,VA,24426,Hardee's
1441,200 EAST VIRGINIA AVE,CREWE,VA,23930,Hardee's
1442,1192 Piney Forest Road,Danville,VA,24540,Hardee's
1443,1298 S BOSTON RD,DANVILLE,VA,24540,Hardee's
1444,3135 RIVERSIDE DR,DANVILLE,VA,24541,Hardee's
1445,1314 W MAIN ST,DANVILLE,VA,24541,Hardee's
1446,NEC FOUNTAIN DRIVE AND COUNTY DRIVE,DISPUTANTA,VA,23842,Hardee's
1447,208 COLLEGE AVENUE,DUBLIN,VA,24084,Hardee's
1448,711 DUFF-PATT ROAD,DUFFIELD,VA,24244,Hardee's
1449,101 MARKET STREET EMPORIA,EMPORIA,VA,23847,Hardee's
1450,4151 LANKFORD HWY,EXMORE,VA,23350,Hardee's
1451,567 WARRENTON ROAD,FALMOUTH,VA,22406,Hardee's
1452,1521 South Main Street,Farmville,VA,23901,Hardee's
1453,402 W MAIN ST,FLOYD,VA,24091,Hardee's
1454,17051 Forest Road,Forest,VA,24551,Hardee's
1455,105 Mechanic St North,Franklin,VA,23851,Hardee's
1456,10706 Patriot Highway,Fredericksburg,VA,22408,Hardee's
1457,1700 PRINCESS ANNE ST,FREDERICKSBURG,VA,22401,Hardee's
1458,11825 TIDEWATER TRAIL,FREDERICKSBURG,VA,22408,Hardee's
1459,425 MAIN ST,GALAX,VA,24333,Hardee's
1460,157 KANE ST,GATE CITY,VA,24251,Hardee's
1461,7007 GEORGE WASHINGTON MEM HWY,GLOUCESTER,VA,23061,Hardee's
1462,1945 SANDY HOOK RD,GOOCHLAND,VA,23063,Hardee's
1463,110 W GORDON AVENUE,GORDONSVILLE,VA,22942,Hardee's
1464,5408 GEORGE WASHINGTON HY,GRAFTON,VA,23692,Hardee's
1465,410 SOUTH MAIN STREET,HALIFAX,VA,24558,Hardee's
1466,8104 New Market Dr,Hampton,VA,23605,Hardee's
1467,63 East Mercury Blvd,Hampton,VA,23669,Hardee's
1468,306 Aberdeen Rd,Hampton,VA,23661,Hardee's
1469,785 MARTIN LUTHER KING WAY,HARRISONBUG,VA,22801,Hardee's
1470,2398 GEORGE WASHINGTON MEM HWY,HAYES,VA,23072,Hardee's
1471,1120 E NINE MILE ROAD,HIGHLAND SPRINGS,VA,23075,Hardee's
1472,115 N MAIN ST,HILLSVILLE,VA,24343,Hardee's
1473,310 WEST RANDOLPH ROAD,HOPEWELL,VA,23860,Hardee's
1474,2915 OAK LAWN,HOPEWELL,VA,23860,Hardee's
1475,501 SOUTH HICKS STREET,LAWRENCEVILLE,VA,23868,Hardee's
1476,1273 EAST MAIN STREET,LEBANON,VA,24266,Hardee's
1477,76 E. Midland Trail,Lexington,VA,24450,Hardee's
1478,413 East Main,Louisa,VA,23093,Hardee's
1479,607 EAST MAIN STREET,LURAY,VA,22835,Hardee's
1480,20265 Timberlake Rd,Lynchburg,VA,24502,Hardee's
1481,2231 Langhorne Rd,Lynchburg,VA,24501,Hardee's
1482,3750 Candlers Mountain Rd,Lynchburg,VA,24502,Hardee's
1483,161 LAKEVIEW DR,MADISON HEIGHTS,VA,24572,Hardee's
1484,347 N Main St,Marion,VA,24354,Hardee's
1485,901 E CHURCH ST,MARTINSVILLE,VA,24112,Hardee's
1486,547 MEMORIAL BLVD S,MARTINSVILLE,VA,24112,Hardee's
1487,27 Main St,Mathews,VA,23109,Hardee's
1488,13736 Hull Street Road,Midlothian,VA,23112,Hardee's
1489,10210 HULL STREET ROAD,MIDLOTHIAN,VA,23112,Hardee's
1490,5298 Main Street,MOUNT JACKSON,VA,22842,Hardee's
1491,11017 Jefferson Avenue,Newport News,VA,23601,Hardee's
1492,430 Denbigh Blvd,Newport News,VA,23608,Hardee's
1493,11014 Warwick Blvd,Newport News,VA,23601,Hardee's
1494,13165 Jefferson Ave,Newport News,VA,23608,Hardee's
1495,7480 Tidewater Drive,Norfolk,VA,23505,Hardee's
1496,8405 Hampton Blvd,Norfolk,VA,23505,Hardee's
1497,2301 E Little Creek Rd,Norfolk,VA,23518,Hardee's
1498,505 West 21st Street,Norfolk,VA,23517,Hardee's
1499,3908 Princess Anne Road,Norfolk,VA,23502,Hardee's
1500,377 Campostella Road,Norfolk,VA,23523,Hardee's
1501,5859 E Virginia Beach Blvd,Norfolk,VA,23502,Hardee's
1502,475 WHARTON LN NE,NORTON,VA,24273,Hardee's
1503,25048 Lankford Hwy,Onley,VA,23418,Hardee's
1504,194 MADISON RD,ORANGE,VA,22960,Hardee's
1505,528 N MAIN STREET,PEARISBURG,VA,24134,Hardee's
1506,712 E MORGAN AVE,PENNINGTON GAP,VA,24277,Hardee's
1507,1865 S Crater Rd,Petersburg,VA,23805,Hardee's
1508,5412 BOYDTON PLANK ROAD,PETERSBURG,VA,23803,Hardee's
1509,5900 W HIGH STREET,PORTSMOUTH,VA,23703,Hardee's
1510,850 LONDON BLVD,PORTSMOUTH,VA,23704,Hardee's
1511,5705 PORTSMOUTH BLVD,PORTSMOUTH,VA,23701,Hardee's
1512,1032 MAIN STREET,PULASKI,VA,24301,Hardee's
1513,7353 Lee Highway,Radford,VA,24141,Hardee's
1514,SECOND ST,RICHLANDS,VA,24641,Hardee's
1515,4801 Jefferson Davis Hwy,Richmond,VA,23234,Hardee's
1516,7917 Midlothian Turnpike,Richmond,VA,23235,Hardee's
1517,6302 LAKESIDE AVENUE,RICHMOND,VA,23228,Hardee's
1518,4841 LABURNUM AVE,RICHMOND,VA,23231,Hardee's
1519,3815 MECHANICSVILLE PIKE,RICHMOND,VA,23223,Hardee's
1520,11121 MIDLOTHIAN TURNPIKE,RICHMOND,VA,23235,Hardee's
1521,3201 E. PARHAM ROAD,RICHMOND,VA,23228,Hardee's
1522,4800 GREENSBORO RD,RIDGEWAY,VA,24148,Hardee's
1523,3401 Plantation Road NE,Roanoke,VA,24012,Hardee's
1524,3729 BRAMBLETON AVE SW,ROANOKE,VA,24018,Hardee's
1525,605 9TH STREET SE,ROANOKE,VA,24013,Hardee's
1526,2301 ORANGE AVENUE NE,ROANOKE,VA,24012,Hardee's
1527,3011 HERSHBERGER ROAD,ROANOKE,VA,24017,Hardee's
1528,4060 ELECTRIC ROAD,ROANOKE,VA,24018,Hardee's
1529,4201 WILLIAMSON ROAD NW,ROANOKE,VA,24012,Hardee's
1530,2398 PETERS CREEK RD NW,ROANOKE,VA,24017,Hardee's
1531,889 VILLAGE HWY,RUSTBURG,VA,24588,Hardee's
1532,16403 WISE ST,SAINT PAUL,VA,24283,Hardee's
1533,2038 W. Main St,Salem,VA,24153,Hardee's
1534,1557 E. Main Street,Salem,VA,24153,Hardee's
1535,1255 Electric Road,Salem,VA,24153,Hardee's
1536,199 GLOUCESTER ROAD,SALUDA,VA,23149,Hardee's
1537,1909 S CHURCH ST,SMITHFIELD,VA,23430,Hardee's
1538,1117 WILBORN AVE,SOUTH BOSTON,VA,24592,Hardee's
1539,1010 BILL TUCK HIGHWAY BOX 6B,SOUTH BOSTON,VA,24592,Hardee's
1540,903 EAST ATLANTIC STREET,SOUTH HILL,VA,23970,Hardee's
1541,9811 COURTHOUSE RD,SPOTSYLVANIA,VA,22553,Hardee's
1542,20 Prosperity Rd,Stafford,VA,22556,Hardee's
1543,933 FAIRYSTONE PARK HWY,STANLEYTOWN,VA,24168,Hardee's
1544,241 N CENTRAL AVENUE,STAUNTON,VA,24401,Hardee's
1545,314 S Main St,Stuart,VA,24171,Hardee's
1546,2578 STUARTS DRAFT HWY,STUARTS DRAFT,VA,24477,Hardee's
1547,843 West Constance Road,Suffolk,VA,23434,Hardee's
1548,2301 PRUDEN BLVD,SUFFOLK,VA,23434,Hardee's
1549,1508 HOLLAND RD,SUFFOLK,VA,23434,Hardee's
1550,2136 FINCASTLE TURNPIKE,TAZEWELL,VA,24651,Hardee's
1551,14078 TIMBERWAY,TIMBERVILLE,VA,22853,Hardee's
1552,2860 LEE HIGHWAY SOUTH,TROUTVILLE,VA,24175,Hardee's
1553,277 Laurel Hill,Verona,VA,24482,Hardee's
1554,1494 GENERAL BOOTH BLVD,VIRGINIA BEACH,VA,23454,Hardee's
1555,2188 GREAT NECK SQUARE,VIRGINIA BEACH,VA,23454,Hardee's
1556,1951 LYNNHAVEN PARKWAY,VIRGINIA BEACH,VA,23453,Hardee's
1557,6075 INDIAN RIVER RD,VIRGINIA BEACH,VA,23464,Hardee's
1558,701 INDEPENDENCE BLVD,VIRGINIA BEACH,VA,23455,Hardee's
1559,2248 VIRGINIA BEACH BLVD,VIRGINIA BEACH,VA,23454,Hardee's
1560,1201 BAKER ROAD,VIRGINIA BEACH,VA,23455,Hardee's
1561,4261 HOLLAND RD,VIRGINIA BEACH,VA,23452,Hardee's
1562,305 DORSET AVENUE,VIRGINIA BEACH,VA,23462,Hardee's
1563,3342 VIRGINIA BEACH BLVD,VIRGINIA BEACH,VA,23452,Hardee's
1564,3252 HOLLAND ROAD,VIRGINIA BEACH,VA,23453,Hardee's
1565,4733 RICHMOND ROAD,WARSAW,VA,22572,Hardee's
1566,239 SOUTH COUNTY DRIVE,WAVERLY,VA,23890,Hardee's
1567,1416 W Main St,Waynesboro,VA,22980,Hardee's
1568,323 14TH ST,WEST POINT,VA,23181,Hardee's
1569,6450 RICHMOND PLAZA,WILLIAMSBURG,VA,23188,Hardee's
1570,538 2ND ST,WILLIAMSBURG,VA,23185,Hardee's
1571,403 WEST MAIN STREET,WISE,VA,24293,Hardee's
1572,1015 E MAIN ST,WYTHEVILLE,VA,24382,Hardee's
1573,5001 Victory Blvd,Yorktown,VA,23693,Hardee's
1574,3401 N Ballard Rd,Appleton,WI,54911,Hardee's
1575,2106 55Th Ave,Baldwin,WI,54002,Hardee's
1576,2690 Eaton Rd,Bellevue,WI,54311,Hardee's
1577,605 N. Water St.,Black River Falls,WI,54615,Hardee's
1578,2070 19Th Ave,Bloomer,WI,54724,Hardee's
1579,1210 N DIVISION ST,COLBY,WI,54421,Hardee's
1580,2933 Western Ave,Eau Claire,WI,54703,Hardee's
1581,2910 Golf Road,Eau Claire,WI,54701,Hardee's
1582,100 E. Commerce Ct,Elkhorn,WI,53121,Hardee's
1583,759 W JOHNSON ST,FOND DU LAC,WI,54935,Hardee's
1584,"2611 West Mason Street Packerland, WI",Green Bay,WI,54303,Hardee's
1585,1593 E Mason St,Green Bay,WI,54302,Hardee's
1586,2328 Humes Rd,Janesville,WI,53545,Hardee's
1587,1311 Rose St,LaCrosse,WI,54603,Hardee's
1588,2205 Hall Ave,Marinette,WI,54143,Hardee's
1589,1618 South Central Ave,Marshfield,WI,54449,Hardee's
1590,537 Gateway Ave,Mauston,WI,53948,Hardee's
1591,230 S EIGHTH STREET,Medford,WI,54451,Hardee's
1592,5930 Badger Drive,Menomonie,WI,54751,Hardee's
1593,902 S Green Bay Road,Neenah,WI,54956,Hardee's
1594,150 E DIVISION ST,NEILLSVILLE,WI,54456,Hardee's
1595,220 N Oakwood St,Oakdale,WI,54660,Hardee's
1596,2100 S KOELLER STREET,OSHKOSH,WI,54902,Hardee's
1597,12613 Tenth St.,Osseo,WI,54758,Hardee's
1598,W9493 City Hwy Cs,Poynette,WI,53955,Hardee's
1599,944 S Marquette Street,Prairie Du Chien,WI,53821,Hardee's
1600,1235 S. Green Bay,Racine,WI,53406,Hardee's
1601,2171 Lincoln,Rhinelander,WI,54501,Hardee's
1602,1819 S Main,Rice Lake,WI,54868,Hardee's
1603,2450 E Layton Ave,Saint Francis,WI,53235,Hardee's
1604,1120 East Green Bay St,Shawano,WI,54166,Hardee's
1605,4409 State Highway 42 North,Sheboygan,WI,53083,Hardee's
1606,6710 S Business Drive,Sheboygan,WI,53081,Hardee's
1607,3132 Church Street,Stevens Point,WI,54481,Hardee's
1608,1510 Belknap Ave,Superior,WI,54880,Hardee's
1609,715 East Main Street,Watertown,WI,53094,Hardee's
1610,640 W FULTON ST,WAUPACA,WI,54981,Hardee's
1611,2609 West Stewart Avenue,Wausau,WI,54401,Hardee's
1612,19 Ritter Dr,Beaver,WV,25813,Hardee's
1613,4400 Pennsylvania Avenue,Big Chimney,WV,25302,Hardee's
1614,901 Bluefield Ave,Bluefield,WV,24701,Hardee's
1615,208 S. Kanawha Street,Buckhannon,WV,26201,Hardee's
1616,1506 Bigley Ave,Charleston,WV,25302,Hardee's
1617,722 E Main St,Clarksburg,WV,26301,Hardee's
1618,27 Randolph Avenue,Elkins,WV,26241,Hardee's
1619,2649 White Hall Blvd,Fairmont,WV,26554,Hardee's
1620,1701 Washington Ave,Huntington,WV,25704,Hardee's
1621,405 Main St,Kingwood,WV,26537,Hardee's
1622,2029 N Jefferson St,Lewisburg,WV,24901,Hardee's
1623,122 Huff Creek Hwy,Man,WV,25635,Hardee's
1624,10401 Maccorkle Ave,Marmet,WV,25315,Hardee's
1625,1600 Earl L Core Rd,Morgantown,WV,26505,Hardee's
1626,1440 7th Street,Parkersburg,WV,26101,Hardee's
1627,4327 Emerson Ave.,Parkersburg,WV,26104,Hardee's
1628,2309 Pike Street,Parkersburg,WV,26101,Hardee's
1629,130 South Main Street,Philippi,WV,26416,Hardee's
1630,170 Meadowfield Ln,Princeton,WV,24740,Hardee's
1631,1306 Stafford Dr,Princeton,WV,24740,Hardee's
1632,889 Robert C Byrd Drive,Sophia,WV,25921,Hardee's
1633,612 Mac Corkle Ave,South Charleston,WV,25303,Hardee's
1634,1401 Webster Road,Summersville,WV,26651,Hardee's
1635,598 Us Highway 33e,Weston,WV,26452,Hardee's
1636,9 Alvon Rd,White Sulphur Spring,WV,24986,Hardee's
1637,104 E Hart St,Buffalo,WY,82834,Hardee's
1638,207 S Miller,Gillette,WY,82716,Hardee's
